LATITUDE,LONGITUDE,COMMUNITY_DISTRICT,LICENSE_NBR,RESTAURANT,BUSINESS_NAME2,BUILDING,STREET,CITY,STATE,ZIP
40.72533596,-74.00313159,102,2043057-DCA,NEW INDIAN FOODS LLC,THE BOMBAY BREAD BAR,195,SPRING ST,NEW YORK,NY,10012
40.69094405,-73.99602984,302,2084766-DCA,"AMY SCHERBER, INC.",AMY'S BREAD,311,HENRY ST,BROOKLYN,NY,11201
40.76563575,-73.91846078,401,2004088-DCA,VEMC GROUP CORP.,SHADY LADY,3419,30TH AVE,ASTORIA,NY,11103
40.743358,-73.99643451,104,2085245-DCA,DLK Restaurants LLC,The Copper Still,206,7TH AVE,NEW YORK,NY,10011
40.6757694,-73.98068726,306,1163793-DCA,MEZCALS OF 5TH AVE. REST CORP.,MESCAL,223,5TH AVE,BROOKLYN,NY,11215
40.74502301,-73.98399458,105,1354206-DCA,MEDPARK-30 LLC,WINE,41,E 30TH ST,NEW YORK,NY,10016
40.7794162,-73.97701394,107,2086764-DCA,329 Hospitality Group LLC,ASSET,329,COLUMBUS AVE,NEW YORK,NY,10023
40.78463039,-73.9732675,107,1249725-DCA,"CILANTRO WEST, LLC",,485,COLUMBUS AVE,NEW YORK,NY,10024
40.73687192,-74.00814788,102,1382062-DCA,753 WASHINGTON TRATTORIA INC.,,753,WASHINGTON ST,NEW YORK,NY,10014
40.77188569,-73.95327491,108,1110042-DCA,C & C FIRST AVE. CORP.,BAR COASTAL,1495,1ST AVE,NEW YORK,NY,10075
40.76527366,-73.9314283,401,2032176-DCA,BEL AIR DINER INC,,3191,21ST ST,ASTORIA,NY,11106
40.73591139,-74.00609819,102,1003313-DCA,J.P.G. LLC,PHILIP MARIE,569,HUDSON ST,NEW YORK,NY,10014
40.78044794,-73.95009139,108,1391390-DCA,SALERNITANI LTD,SAN MATTEO PIZZERIA ESPRESSO BAR,1739,2ND AVE,NEW YORK,NY,10128
40.74441688,-73.98778402,105,2038808-DCA,IHI-NY LLC,ILILI,236,5TH AVE,NEW YORK,NY,10001
40.80071245,-73.96550989,107,2042354-DCA,AMSTERDAM GS CORPORATION,THE ELLINGTON,936,AMSTERDAM AVE,NEW YORK,NY,10025
40.77678211,-73.95278043,108,2075388-DCA,"GREEN 84, LLC",GREEN KITCHEN,1619,2ND AVE,NEW YORK,NY,10028
40.72050755,-73.99013332,103,2082429-DCA,"BANTER NOLITA, LLC",SONNYBOY,65,RIVINGTON ST,NEW YORK,NY,10002
40.76348864,-73.92136937,401,1327665-DCA,3321 ASTORIA INC.,BARE BURGER,3321,31ST AVE,ASTORIA,NY,11106
40.72852541,-73.9994155,102,1348216-DCA,151 BLEECKER LLC,THE RED LION,151,BLEECKER ST,NEW YORK,NY,10012
40.71889671,-74.00459232,101,1249567-DCA,BANCONE LLC,PETRARCA,34,WHITE ST,NEW YORK,NY,10013
40.77470624,-73.95076364,108,1465870-DCA,"PQ EAST 83RD ST, INC",LE PAIN QUOTIDIEN,1592,1ST AVE,NEW YORK,NY,10028
40.82865012,-73.9485376,109,2010852-DCA,GREENWOOD LAKE GROUP LLC,AT THE WALLACE,3612,BROADWAY,NEW YORK,NY,10031
40.67191518,-73.97760976,306,1425933-DCA,CREDENCE LLC,BAREBURGER,170,7TH AVE,BROOKLYN,NY,11215
40.8659941,-73.92723175,112,1347915-DCA,VIDA MEXICANA INC.,,223,DYCKMAN ST,NEW YORK,NY,10034
40.73479716,-74.00203149,102,2019224-DCA,INNOVATION KITCHENS LLC,DOMINIQUE ANSEL KITCHEN,137,7TH AVE S,NEW YORK,NY,10014
40.81130187,-73.95805907,109,1073015-DCA,1274 AMSTERDAM TRATTORIA INC.,,1274,AMSTERDAM AVE,NEW YORK,NY,10027
40.67894395,-73.99764213,306,1221041-DCA,"LEAHLALA, LLC",ABILENE,442,COURT ST,BROOKLYN,NY,11231
40.72869559,-73.99979074,102,2026141-DCA,"SOUTH VILLAGE HOSPITALITY GROUP, LLC",CARROLL PLACE,157,BLEECKER ST,NEW YORK,NY,10012
40.78732652,-73.9770076,107,1000314-DCA,"BROADWAY DESSERTS, LTD.",,2340,BROADWAY,NEW YORK,NY,10024
40.75938434,-73.99169055,104,2023885-DCA,WESTWAY DINER INC,WEST WAY DINER,614,9TH AVE,NEW YORK,NY,10036
40.76257656,-73.99306911,104,1419380-DCA,"ANEJO, LLC",ANEJO TEQUILERIA,668,10TH AVE,NEW YORK,NY,10036
40.72688719,-73.95751328,301,1420945-DCA,F-C LLC,CALYER,90,CALYER ST,BROOKLYN,NY,11222
40.72904965,-74.00141435,102,1452982-DCA,"SOH PEACE, INC.",,87,MACDOUGAL ST,NEW YORK,NY,10012
40.77496655,-73.9564825,108,1159625-DCA,"ELI'S MANHATTAN WAREHOUSE, INC.",,1411,3RD AVE,NEW YORK,NY,10028
40.73591155,-74.00051961,102,1133898-DCA,FIDDLESTICKS L.L.C.,,54,GREENWICH AVE,NEW YORK,NY,10011
40.77151495,-73.98177869,107,1282969-DCA,"64 WEST RESTAURANT, LLC",,1900,BROADWAY,NEW YORK,NY,10023
40.689672,-73.96951578,302,1247610-DCA,243 DEKALB AVE. REST. CORP.,,243,DEKALB AVE,BROOKLYN,NY,11205
40.76541316,-73.98032914,105,1192416-DCA,"CIELI PARTNERS, L.P.",TRATTORIA DELL'ARTE,900,7TH AVE,NEW YORK,NY,10106
40.76547377,-73.98170453,105,2065486-DCA,PRET A MANGER (USA) LIMITED,PRET A MANGER (USA) LIMITED,1756,BROADWAY,NEW YORK,NY,10019
40.74334361,-73.98711659,105,2033301-DCA,MADISON PARK ACQUISITIONS LLC,SD26,19,E 26TH ST,NEW YORK,NY,10010
40.74598262,-73.97770035,106,1103083-DCA,GROUBEN FOOD CORP.,,515,3RD AVE,NEW YORK,NY,10016
40.71558144,-73.94441519,301,2021604-DCA,CONCORD HILL INC,CONCORD HILL,374,GRAHAM AVE,BROOKLYN,NY,11211
40.77562567,-73.90983378,401,2078751-DCA,BURGEROLOGY ASTORIA LLC,,3129,DITMARS BLVD,ASTORIA,NY,11105
40.74456452,-73.9533049,402,2070369-DCA,MADERA PIZZA & GRILL INC,,4729,VERNON BLVD,LONG ISLAND CITY,NY,11101
40.75557988,-73.92799846,401,2077342-DCA,WOLFE L.I.C INC,2 DIVE 4,3310,36TH AVE,ASTORIA,NY,11106
40.71370019,-73.96199461,301,2078944-DCA,MIZU SUSHI NY INC,,314,BEDFORD AVE,BROOKLYN,NY,11249
40.71319672,-73.95857891,301,1145629-DCA,"GRAND ENDEAVORS, INC.",CLEM'S,264,GRAND ST,BROOKLYN,NY,11211
40.7703736,-73.95390777,108,2090719-DCA,"HEX EAST, LLC",,1462,1ST AVE,NEW YORK,NY,10075
40.78065209,-73.98119124,107,2011932-DCA,"BEACWAY OPERATING, LLC",,2130,BROADWAY,NEW YORK,NY,10023
40.67600158,-73.99913116,306,1276639-DCA,TSM RESTAURANT LLC,BUTTERMILK CHANNEL,524,COURT ST,BROOKLYN,NY,11231
40.76197062,-73.96587288,108,1466251-DCA,THE YORK RESTAURANT BAR INC.,ANASSA,200,E 60TH ST,NEW YORK,NY,10022
40.78703576,-73.97792855,107,1341402-DCA,DONIZETTI LLC,5 NAPKIN BURGER,2315,BROADWAY,NEW YORK,NY,10024
40.76583333,-73.98174053,105,2070814-DCA,JOE & THE JUICE NEW YORK LLC,JOE & THE JUICE,1758,BROADWAY,NEW YORK,NY,10019
40.78244439,-73.98111851,107,2080664-DCA,MILLE-FEUILLE BAKERY BROADWAY LLC,,2175,BROADWAY,NEW YORK,NY,10024
40.84168873,-73.93973071,112,1283230-DCA,600 WEST 169TH REST. INC.,COOGANS,4015,BROADWAY,NEW YORK,NY,10032
40.75859897,-73.91950897,401,2022425-DCA,"AFB LOUNGE, LLC",BRIK LOUNGE AND KITCHEN,3216,STEINWAY ST,ASTORIA,NY,11103
40.75601966,-73.92468087,401,2023395-DCA,"35-01 36TH STREET REST., INC.",TACUBA,3501,36TH ST,ASTORIA,NY,11106
40.74384187,-73.95843716,402,2086169-DCA,Center Blvd Restaurant LLC,,201,50TH AVE,LONG ISLAND CITY,NY,11101
40.80580127,-73.96584679,109,1001063-DCA,"112 FRENCH, INC.",LE MONDE,2883,BROADWAY,NEW YORK,NY,10025
40.76111571,-73.92325286,401,2081432-DCA,AMYLOS LLC,AMYLOS,3319,BROADWAY,ASTORIA,NY,11106
40.76624064,-73.99089187,104,1253585-DCA,TABOON RESTAURANT CORP.,TABOON,773,10TH AVE,NEW YORK,NY,10019
40.76939689,-73.95496985,108,1420358-DCA,1431 FIRST AVENUE CORP.,NUMERO 28,1431,1ST AVE,NEW YORK,NY,10021
40.70809616,-74.00148965,101,2091250-DCA,HHC 33 PECK SLIP HOLDINGS LLC,BELLINI,33,PECK SLIP,NEW YORK,NY,10038
40.77376046,-73.9079011,401,0851667-DCA,"TOTORE PIZZERIA & RESTAURANT, INC.",,3620,DITMARS BLVD,ASTORIA,NY,11105
40.76458292,-73.99220973,104,2022878-DCA,"EL ORIGINAL NYC, LLC",,735,10TH AVE,NEW YORK,NY,10019
40.76410984,-73.98309834,105,1170078-DCA,"IGUANA NEW YORK, LTD.",IGUANA,240,W 54TH ST,NEW YORK,NY,10019
40.71899284,-73.99764792,102,1342588-DCA,NEW RESTART INC.,TAORMINA RESTAURANT,145,MULBERRY ST,NEW YORK,NY,10013
40.85408818,-73.8870481,206,1448450-DCA,"CAKOR RESTAURANT, INC.",,632,E 186TH ST,BRONX,NY,10458
40.73386943,-74.0023093,102,2039464-DCA,LEGENDARY NIGHT SPOTS INC,THE DUPLEX,61,CHRISTOPHER ST,NEW YORK,NY,10014
40.86817988,-73.92043931,112,1418705-DCA,207 WEST RESTAURANT CORP.,YUMMY THAI,4959,BROADWAY,NEW YORK,NY,10034
40.86619201,-73.92769069,112,1298434-DCA,SUSHI VIDA INC.,MAMA SUSHI,237,DYCKMAN ST,NEW YORK,NY,10034
40.72330349,-73.9529013,301,1374780-DCA,63 GUERNSEY LLC,SPRITZENHAUS,63,GUERNSEY ST,BROOKLYN,NY,11222
40.7212677,-73.98849896,103,1414794-DCA,"168 ORCHARD ST PARTNERS, INC.",,168,ORCHARD ST,NEW YORK,NY,10002
40.78549757,-73.9726316,107,2070813-DCA,"EGS, LLC",THE VIAND DINER & BAR,517,COLUMBUS AVE,NEW YORK,NY,10024
40.71961846,-74.00706712,101,1116343-DCA,REBA REALTY CORP.,WALKER'S,16,N MOORE ST,NEW YORK,NY,10013
40.77557645,-73.95106628,108,1253201-DCA,NICA RESTAURANT CORP.,NICA TRATTORIA,354,E 84TH ST,NEW YORK,NY,10028
40.76429147,-73.97155373,108,2039436-DCA,SIXTY HOSPITALITY LLC,,14,E 60TH ST,NEW YORK,NY,10022
40.69860727,-73.9925889,302,2055190-DCA,76 HENRY ST INC,KOGANE RAMEN,76,HENRY ST,BROOKLYN,NY,11201
40.73975397,-74.00735073,102,2004071-DCA,SLJ BAR LLC,,63,GANSEVOORT STREET,NEW YORK,NY,10014
40.75840669,-73.91929984,401,2038816-DCA,STEINWAY LPC CORP,LA PEQUENA COLOMBIA,3225,STEINWAY ST,ASTORIA,NY,11103
40.72551232,-73.97803191,103,1034831-DCA,177 CHRYSTIE INC.,ESPERANTO,145,AVENUE C,NEW YORK,NY,10009
40.73231861,-74.00340975,102,2041384-DCA,"JOSAN & JOSAN, INC.",TACO MAHAL,73,7TH AVE S,NEW YORK,NY,10014
40.72619466,-73.98975365,103,2043319-DCA,CJFM LLC,LA CONTRADA,84,E 4TH ST,NEW YORK,NY,10003
40.77546155,-73.91417026,401,2006950-DCA,GREEK TAVERNA LLC,TELLY'S TAVERNA,2811,23RD AVE,ASTORIA,NY,11105
40.76468617,-73.98265056,105,1170662-DCA,"APPLEJACK COFFEE SHOP, INC.",,230,W 55TH ST,NEW YORK,NY,10019
40.72954301,-73.98728162,103,1355808-DCA,149 SECOND AVE. REST. INC.,The 13th Step,149,2ND AVE,NEW YORK,NY,10003
40.74620985,-74.00078675,104,1141700-DCA,23RD & 9TH RESTAURANT CORP.,,368,W 23RD ST,NEW YORK,NY,10011
40.75804664,-73.92259223,401,0959237-DCA,"MOHECO, INC.",,3290,36TH ST,ASTORIA,NY,11106
40.7201146,-73.96171678,301,2082167-DCA,SURELY YOU MUST BE KIDDING LLC,,119,KENT AVE,BROOKLYN,NY,11249
40.71114352,-73.95126508,301,1347394-DCA,CAFE ARGENTINO INC.,CAFE ARGENTINO,499,GRAND ST,BROOKLYN,NY,11211
40.76105786,-73.96112651,108,2077336-DCA,"IROM, LLC",ONE LENOX,1113,1ST AVE,NEW YORK,NY,10065
40.7794574,-73.95082151,108,2020263-DCA,SAMSON GREY LLC,,1703,2ND AVE,NEW YORK,NY,10128
40.73694007,-73.98673533,105,0819452-DCA,FRIEND OF A FARMER CORP.,,77,IRVING PL,NEW YORK,NY,10003
40.75589968,-73.9673667,106,1422033-DCA,KAZO INC,PIERRE LOTI,300 1/2,E 52ND ST,NEW YORK,NY,10022
40.77072646,-73.96627274,108,2046261-DCA,LADUREE MADISON LLC,LADUREE,864,MADISON AVE,NEW YORK,NY,10021
40.72118859,-73.99547246,102,1245908-DCA,"CAFFE VETRO, INC.",,200,MOTT ST,NEW YORK,NY,10012
40.76984549,-73.96657645,108,1167909-DCA,THIERRY INC.,,19,E 69TH ST,NEW YORK,NY,10021
40.67438071,-73.9817151,306,2051771-DCA,BROOKLYN BURGER & BEERS CORP,,259,5TH AVE,BROOKLYN,NY,11215
40.71952524,-73.99482323,102,1426393-DCA,343 BROOME STREET RESTAURANT INC,RANDOLPH BEER,343,BROOME ST,NEW YORK,NY,10013
40.73614195,-74.00605852,102,1135398-DCA,"COBRA CATERERS, INC.",HUDSON HOUND,575,HUDSON ST,NEW YORK,NY,10014
40.84922987,-73.85497001,211,2038120-DCA,LUKE'S LOUNGE INC,,1808,HONE AVE,BRONX,NY,10461
40.73456385,-74.0021253,102,1341044-DCA,"CARABEAN, LLC",GALWAY HOOKER BAR,133,7TH AVE S,NEW YORK,NY,10014
40.72922529,-74.00283231,102,1446392-DCA,NACO NYC LLC,EL TORO BLANCO,10,DOWNING ST,NEW YORK,NY,10014
40.75840664,-73.91923487,401,2042124-DCA,"ST. GEORGE HOLDING, CORP",EL BASURERO BAR RESTAURANT,3217,STEINWAY ST,ASTORIA,NY,11103
40.72068626,-73.99465719,102,1437537-DCA,JUICERIE LLC,JUICERIE,19,KENMARE ST,NEW YORK,NY,10012
40.72556647,-74.00473709,102,2038130-DCA,TOURBILLON 45 LLC,CAFE ALTRO PARADISO,234,SPRING ST,NEW YORK,NY,10013
40.72983031,-73.98079426,103,2037228-DCA,TAVERN 211 CORP,SPOTTED OWL TAVERN,211,AVENUE A,NEW YORK,NY,10009
40.71385432,-73.94890038,301,1311871-DCA,600 METROPOLITAN CORP.,ALLIGATOR LOUNGE,600,METROPOLITAN AVE,BROOKLYN,NY,11211
40.71952524,-73.9949567,102,1383186-DCA,"CHERRY LANE, INC.",THE RANDOLPH AT BROOME,349,BROOME ST,NEW YORK,NY,10013
40.78411447,-73.9736577,107,2009330-DCA,LENWICH 83RD LLC,LENWICH,469,COLUMBUS AVE,NEW YORK,NY,10024
40.72225087,-73.9973592,102,2052738-DCA,"CCFC 62 SPRING, LLC",CHEFS CLUB COUNTER,62,SPRING ST,NEW YORK,NY,10012
40.72059575,-73.99645015,102,2039794-DCA,JOYFUL EATS TWO LLC,MIMI CHENG'S DUMPLINGS,380,BROOME ST,NEW YORK,NY,10013
40.68343992,-73.99989904,306,1422856-DCA,"TESSA & LUCHO, INC.",BAR BRUNO,520,HENRY ST,BROOKLYN,NY,11231
40.70804125,-74.00193329,101,2017695-DCA,HEDGIE LLC,,22,PECK SLIP,NEW YORK,NY,10038
40.76416022,-73.91622443,401,2088124-DCA,THE BEE FACTORY LLC,BISKOTI,3720,30TH AVE,ASTORIA,NY,11103
40.76327244,-73.9813983,105,1424846-DCA,"SHELBURNE BAR AND GRILL, INC.",,837,7TH AVE,NEW YORK,NY,10019
40.74693436,-74.00499124,104,2055690-DCA,SONNY LOU INC,PEPE GIALLO,195,10TH AVE,NEW YORK,NY,10011
40.77525627,-73.95337725,108,2052743-DCA,RENZAN SUSHI CORPORATION,SUSHI REN JAPANESE CUISINE & BAR,1584,2ND AVE,NEW YORK,NY,10028
40.76325231,-73.96552928,108,2042118-DCA,"ARTIO RESTAURANT, LLC",UPPER EAST CAFE,1048,3RD AVE,NEW YORK,NY,10065
40.7184933,-73.99761547,102,1432938-DCA,132 MULBERRY INC,UMBERTO'S CLAM HOUSE,132,MULBERRY ST,NEW YORK,NY,10013
40.67764788,-73.97239465,308,2059550-DCA,SWEET CHICK FLATBUSH LLC,SWEET CHICK,636,CARLTON AVE,BROOKLYN,NY,11238
40.73341339,-73.9900845,102,2044806-DCA,UNION SQ 4TH F & B MANAGEMENT LLC,,132,4TH AVE,NEW YORK,NY,10003
40.76402036,-73.88460892,403,2050276-DCA,DALTONS BAR AND GRILL LLC,DALTON'S,8414,ASTORIA BLVD,EAST ELMHURST,NY,11370
40.72563508,-73.99510055,102,2072713-DCA,BOLD FOOD LAFAYETTE ST LLC,GATO,324,LAFAYETTE ST,NEW YORK,NY,10012
40.73596918,-74.00093097,102,2071746-DCA,1 PERRY LLC,,1,PERRY ST,NEW YORK,NY,10014
40.80875796,-73.95931054,109,2087052-DCA,COLUMBIA GREEK EATERY LLC,ELYSIAN FIELDS,1207,AMSTERDAM AVE,NEW YORK,NY,10027
40.77338332,-73.90651161,401,2079406-DCA,"JACK JONES, INC.",,3801,DITMARS BLVD,ASTORIA,NY,11105
40.80285303,-73.95650039,110,1420812-DCA,SIX LOUNGE LLC,HARLEM FOOD BAR,2100,FREDERICK DOUGLASS BLVD,NEW YORK,NY,10026
40.73824945,-73.98799805,105,2082432-DCA,Thessabul LLC,,250,PARK AVE S,NEW YORK,NY,10003
40.77492208,-73.90864687,401,2082015-DCA,LYH DITMARS HOSPITALITY CORP,THE DITTY,3503,DITMARS BLVD,ASTORIA,NY,11105
40.7170944,-73.95184873,301,2024391-DCA,ZUPPANYC LLC,RE UNION,544,UNION AVE,BROOKLYN,NY,11211
40.71186199,-73.96448095,301,2077328-DCA,COMMONWEALTH HOSPITALITY LLC,BUTLER,95,S 5TH ST,BROOKLYN,NY,11249
40.76148873,-73.96096743,108,1136669-DCA,62nd & 1st LLC,TREADWELL PARK,1125,1ST AVE,NEW YORK,NY,10065
40.76953394,-73.95450043,108,1398066-DCA,UNCLE ABIES DELI ON FIRST INC.,2ND AVENUE DELI,1442,1ST AVE,NEW YORK,NY,10021
40.73481911,-74.00229851,102,1131159-DCA,FOUR GREEN FIELDS LLC.,AGAVE,140,7TH AVE S,NEW YORK,NY,10014
40.76145722,-73.92502487,401,2083474-DCA,SALVATORIA KITCHEN AND BAR CORP,SALVATORIA KITCHEN AND BAR,3118,BROADWAY,ASTORIA,NY,11106
40.73280658,-73.98773563,103,1466659-DCA,106 3RD AVE NYC INC.,BRAZEN FOX KITCHEN AND BAR,106,3RD AVE,NEW YORK,NY,10003
40.7326864,-74.00369843,102,2032701-DCA,305 BLEECKER FOOD MARKET LLC,SUPREME PROVISIONS,305,BLEECKER ST,NEW YORK,NY,10014
40.72900287,-74.00545533,102,2081204-DCA,SHAKE SHACK NEW YORK LLC,SHAKE SHACK,225,VARICK ST,NEW YORK,NY,10014
40.73487475,-73.97840409,106,2001324-DCA,Hane Sushi Inc.,,346,1ST AVE,NEW YORK,NY,10009
40.73324633,-73.99616082,102,2010302-DCA,24 5TH AVE LLC,CLAUDETTE,24,5TH AVE,NEW YORK,NY,10011
40.74645903,-73.98829973,105,2075393-DCA,PRYM 1216 STREET LEVEL LLC,WOODPECKER BY DAVID BURKE,1216,BROADWAY,NEW YORK,NY,10001
40.68013629,-73.9681537,308,2064752-DCA,"MALABAR KITCHEN, LLC",ALTA CALIDAD,552,VANDERBILT AVE,BROOKLYN,NY,11238
40.72065693,-73.84557789,406,2078103-DCA,ANTIOCHIA GRILL INC,,7035,AUSTIN ST,FOREST HILLS,NY,11375
40.78418114,-73.9774059,107,1027125-DCA,HARU AMSTERDAM AVENUE CORP.,HARU,433,AMSTERDAM AVE,NEW YORK,NY,10024
40.72082899,-74.00541137,101,1450769-DCA,"268 WEST BROADWAY, LLC",AOA BAR AND GRILL,35,AVENUE OF THE AMERICAS,NEW YORK,NY,10013
40.77098718,-73.95091802,108,2042425-DCA,HERM LLC,,1479,YORK AVE,NEW YORK,NY,10075
40.72563769,-74.00736721,102,2084772-DCA,NONNA BEPPA SOHO LLC,,290,HUDSON ST,NEW YORK,NY,10013
40.74763307,-73.88621445,403,1026947-DCA,COSITAS RICAS CORP.,,7919,ROOSEVELT AVE,JACKSON HTS,NY,11372
40.73759089,-73.9899215,105,2019225-DCA,JUICE GENERATION 13 INC,JUICE GENERATION,28,E 18TH ST,NEW YORK,NY,10003
40.72364244,-73.99669171,102,1277362-DCA,SENGUPTA FOOD SERVICES LLC,SOHO PARK,62,PRINCE ST,NEW YORK,NY,10012
40.77528508,-73.90951651,401,2034028-DCA,GG33 CORP,LEFKOS PYRGOS,3302,DITMARS BLVD,ASTORIA,NY,11105
40.67259027,-73.95767044,308,2076184-DCA,"CAFE FORTE, INC",CLUB FORTE,619,SAINT JOHNS PL,BROOKLYN,NY,11238
40.70744545,-73.94336155,301,2049157-DCA,"WINSOME FOODS, LLC",WIN SON,159,GRAHAM AVE,BROOKLYN,NY,11206
40.73571103,-74.00586723,102,1387557-DCA,"FRANCIS LOUIS, LLC",FRANKIE'S 570 SPUNTINO,570,HUDSON ST,NEW YORK,NY,10014
40.73567808,-74.00608734,102,2090482-DCA,WHITE HORSE HOSPITALITY LLC,,567,HUDSON ST,NEW YORK,NY,10014
40.76408029,-73.98826414,104,1206030-DCA,"ARRIBA ARRIBA MEXICAN RESTAURANTS, INC.",,762,9TH AVE,NEW YORK,NY,10019
40.77637316,-73.9819254,107,0769760-DCA,FIRST 69TH ST. REALTY CORP.,WESTSIDE RESTAURANT E/S/C #417,2020,BROADWAY,NEW YORK,NY,10023
40.77736449,-73.96151417,108,1172157-DCA,"E. A. T. IS OWNED BY ELI ZABAR, INC.",EAT,1064,MADISON AVE,NEW YORK,NY,10028
40.7565312,-73.9805339,105,1251386-DCA,L & J BRAZIL RESTAURANT INC.,VIA BRASIL,34,W 46TH ST,NEW YORK,NY,10036
40.73031499,-74.00034998,102,0782318-DCA,"CAVALLACCI, FABRIZIO",CAFE REGGIO,119,MACDOUGAL ST,NEW YORK,NY,10012
40.6759688,-73.95008666,308,2083469-DCA,Anton Santaniello Holdings LLC,La Napa,656,NOSTRAND AVE,BROOKLYN,NY,11216
40.72497914,-74.00321816,102,2087977-DCA,ST TROPEZ SOHO LLC,ST TROPEZ WINE BAR,196,SPRING ST,NEW YORK,NY,10012
40.74246876,-74.00077949,104,2052336-DCA,"161 8TH AVE RESTAURANT, LLC",,161,8TH AVE,NEW YORK,NY,10011
40.71691207,-74.00793982,101,0920717-DCA,"THE ODEON, INC.",,145,W BROADWAY,NEW YORK,NY,10013
40.73910838,-73.98637404,106,0931051-DCA,"M.E.G.RESTAURANT ENTERPRISES,LTD.",NOVITA,102,E 22ND ST,NEW YORK,NY,10010
40.76259447,-73.9264603,401,1419088-DCA,NKLG CAFE CORP.,ALIADA,2919,BROADWAY,ASTORIA,NY,11106
40.81091221,-73.95831941,109,1133124-DCA,1262 AMSTERDAM CAFE INC.,,1262,AMSTERDAM AVE,NEW YORK,NY,10027
40.73388022,-73.99299993,102,1412892-DCA,120 U REST. LLC,TORTARIA,94,UNIVERSITY PL,NEW YORK,NY,10003
40.72202736,-73.98326053,103,1423768-DCA,A.O. CAFE AND RESTAURANT LLC,CORNERSTONE CAFE,17,AVENUE B,NEW YORK,NY,10009
40.73720329,-73.98457381,106,2050233-DCA,BARFLY NYC INC,BARFLY,244,3RD AVE,NEW YORK,NY,10010
40.79951754,-73.96245488,107,2086721-DCA,THE CALAVERAS GROUP LLC,,949,COLUMBUS AVE,NEW YORK,NY,10025
40.75925801,-73.99074122,104,1289268-DCA,"PROGETTO, INC.",,352,W 44TH ST,NEW YORK,NY,10036
40.73612838,-74.00073251,102,1385289-DCA,64 GREENWICH RESTAURANT LLC,,64,GREENWICH AVE,NEW YORK,NY,10011
40.7650875,-73.97177359,108,2017806-DCA,"IHMS, LLC",HOTEL PIERRE,2,E 61ST ST,NEW YORK,NY,10065
40.75373917,-73.93429518,401,2005314-DCA,DUTCH KILLS RESTORATION CORP.,DUTCH KILLS CENTRAAL,3840,29TH ST,LONG ISLAND CITY,NY,11101
40.73445408,-74.00003247,102,2032727-DCA,"OFF CUTS, LLC",,19,GREENWICH AVE,NEW YORK,NY,10014
40.77667233,-73.9818856,107,2058331-DCA,West D & P LLC,GINA,2028-2032,BROADWAY,NEW YORK,NY,10023
40.77134513,-73.95364716,108,2050840-DCA,1483 FIRST AVENUE RESTAURANT INC.,MARUZZELLA,1483,1ST AVE,NEW YORK,NY,10075
40.71607486,-74.00865036,101,2063387-DCA,MAC 1 FOOD AND BEVERAGE LLC,,109,W BROADWAY,NEW YORK,NY,10013
40.70631915,-73.92284706,304,2057458-DCA,ARTICHOKE BUSHWICK LLC,ARTICHOKE BASILLE'S PIZZA,18,WYCKOFF AVE,BROOKLYN,NY,11237
40.86211488,-73.90024457,205,2085255-DCA,GYRO KING FOODS CORP.,,50,E FORDHAM RD,BRONX,NY,10468
40.72354746,-73.95215794,301,2077333-DCA,HAKU TEN INC,AMAMI SUSHI,57,NASSAU AVE,BROOKLYN,NY,11222
40.76728504,-73.95925646,108,1217877-DCA,"1326 RESTAURANT, LLC",BEACH CAFE,1326,2ND AVE,NEW YORK,NY,10021
40.72213284,-73.99745661,102,1426863-DCA,MOLLY PICON LLC,JACK'S WIFE FREDA,224,LAFAYETTE ST,NEW YORK,NY,10012
40.73727005,-74.0058782,102,1010686-DCA,"LA RIPAILLE, CORP.",LA RIPAILLE RESTAURANT,605,HUDSON ST,NEW YORK,NY,10014
40.74737357,-74.00366315,104,2041410-DCA,NEW YORK BURGER 10th AVE INC.,NEW YORK BURGER CO,470,W 23RD ST,NEW YORK,NY,10011
40.74496808,-73.95352115,402,2006083-DCA,OWM VERNON LLC,CORNER BISTRO,4718,VERNON BLVD,LONG ISLAND CITY,NY,11101
40.72074124,-73.99693717,102,2070365-DCA,390 BROOME RESTAURANT LLC,SEAMORE'S,390,BROOME ST,NEW YORK,NY,10013
40.74869167,-73.8698418,404,1311161-DCA,"SABOR LATINO I, CORP.",,9535,40TH RD,ELMHURST,NY,11373
40.83924088,-73.94057499,112,1075763-DCA,"BROADWAY & 166TH, L.L.C.",DALLAS BBQ,3956,BROADWAY,NEW YORK,NY,10032
40.78373114,-73.97814269,107,2086168-DCA,BETTOLA NYC CORP.,BETTOLA,412,AMSTERDAM AVE,NEW YORK,NY,10024
40.7330658,-73.95795677,301,2087975-DCA,MADRE HOSPITALITY INC,,214,FRANKLIN ST,BROOKLYN,NY,11222
40.67527096,-73.96283848,308,2087606-DCA,CORNER 660 LLC,,446,PARK PL,BROOKLYN,NY,11238
40.76245776,-73.91158793,401,2060036-DCA,La Luna Deli &Cafe Inc.,,4401,30TH AVE,ASTORIA,NY,11103
40.71889403,-73.99768761,102,1383044-DCA,PSSP NY INC.,,143,MULBERRY ST,NEW YORK,NY,10013
40.71737345,-73.99850654,102,2040738-DCA,SAPORI D'ITALIA OF NYC INC,SAPORI,105,MULBERRY ST,NEW YORK,NY,10013
40.7184933,-73.99759744,102,1208521-DCA,"ASC, INC.",LA NONNA,134,MULBERRY ST,NEW YORK,NY,10013
40.76101777,-73.90934458,401,1426466-DCA,"BRATS UND BIER, INC.",MAX,4702,30TH AVE,ASTORIA,NY,11103
40.76032205,-73.87817558,403,2071249-DCA,"THE KING OF TACOS HOUSE, INC",,9017,31ST AVE,EAST ELMHURST,NY,11369
40.62451083,-74.03074986,310,2087056-DCA,BAYRIDGE HOSPITALITY GROUP LLC,BACI RISTORANTE,8424,3RD AVE,BROOKLYN,NY,11209
40.71918743,-73.96343448,301,1389004-DCA,NLAM INC.,,178,KENT AVE,BROOKLYN,NY,11211
40.73845591,-74.00217234,102,2023070-DCA,NISIDA LLC,ROSSOPOMODORO,118,GREENWICH AVE,NEW YORK,NY,10011
40.73004107,-73.95793342,301,2024806-DCA,STARLITE WALKER LLC,,113,FRANKLIN ST,BROOKLYN,NY,11222
40.74464461,-73.98699364,105,2021652-DCA,"SENANROSSA, LLC",,253,5TH AVE,NEW YORK,NY,10016
40.78122975,-73.94907616,108,2023861-DCA,1754 REST INC.,,1754,2ND AVE,NEW YORK,NY,10128
40.7554306,-73.96835231,106,1465365-DCA,GOLDEN ABACUS INC.,BONCHON,957,2ND AVE,NEW YORK,NY,10022
40.7329252,-74.00360463,102,2069714-DCA,FIFTYTWO MERCHANTS LLC,PISELLINO,52,GROVE ST,NEW YORK,NY,10014
40.80873286,-73.94511405,110,1418169-DCA,"SUN OF MAY, LLC",LENOX SOCIAL,321,MALCOLM X BLVD,NEW YORK,NY,10027
40.7388034,-73.98395638,106,2082893-DCA,INDEPENDENT OF 23RD STREET LLC,,158,E 23RD ST,NEW YORK,NY,10010
40.7363891,-73.99730451,102,0919619-DCA,ZESTFUL MANAGEMENT CORP.,BAR 6,502,AVENUE OF THE AMERICAS,NEW YORK,NY,10011
40.74326295,-73.97970053,106,1348205-DCA,THIRD AVE CAFE LLC,,431,3RD AVE,NEW YORK,NY,10016
40.80538848,-73.96236849,109,1026510-DCA,STROKOS GOURMET DELI INC,,1090,AMSTERDAM AVE,NEW YORK,NY,10025
40.75707571,-73.9722354,105,2086719-DCA,KAYA MANAGEMENT CORP,BAO BY KAYA,570,LEXINGTON AVE,NEW YORK,NY,10022
40.74023965,-73.99080882,105,2089503-DCA,RALPH LAUREN RETAIL INC,,160,5TH AVE,NEW YORK,NY,10010
40.72429287,-73.99452341,102,2006082-DCA,ERJO COMPANY LLC,CAFETAL,285,MOTT ST,NEW YORK,NY,10012
40.71423639,-73.94417823,301,2071248-DCA,NATURAL CROP INC.,GRASS ROOTS JUICERY,336A,GRAHAM AVE,BROOKLYN,NY,11211
40.70786834,-74.0018359,101,2023071-DCA,SLAMMERS INC,SUTEISHI JAPANESE  RESTAURANT,24,PECK SLIP,NEW YORK,NY,10038
40.73596369,-74.00134593,102,2088678-DCA,SUPER NORIEGA LLC,BABY BRASA,173,7TH AVE S,NEW YORK,NY,10014
40.7260732,-73.98375018,103,2010250-DCA,SEVEN A CAFE INC.,MISS LILY'S 7A,109,AVENUE A,NEW YORK,NY,10009
40.61949826,-74.03284757,310,1079876-DCA,"PANEANTICO BAKERY CAFE, INC.",,9124,3RD AVE,BROOKLYN,NY,11209
40.73187859,-73.98549513,103,2090170-DCA,HOST 213 LLC,JACKDAW,213,2ND AVE,NEW YORK,NY,10003
40.72716934,-73.99387375,102,2051482-DCA,HONEYBRAINS LAFAYETTE LLC,,372,LAFAYETTE ST,NEW YORK,NY,10012
40.78750913,-73.97126213,107,2054416-DCA,BODEGA 88 LLC,,573,COLUMBUS AVE,NEW YORK,NY,10024
40.71069308,-73.9656755,301,1027923-DCA,"MARLOW, INC.",DINER,85,BROADWAY,BROOKLYN,NY,11249
40.73430844,-74.00634341,102,1248153-DCA,BACBARS GROUP LLC,BAYARD'S ALE HOUSE,533,HUDSON ST,NEW YORK,NY,10014
40.75725803,-73.97762439,105,2028881-DCA,3 EAST 48TH REST. INC.,PJ MORAN'S,3,E 48TH ST,NEW YORK,NY,10017
40.7722599,-73.95559973,108,0952606-DCA,1490 REST. INC.,DOC WATSON'S,1490,2ND AVE,NEW YORK,NY,10075
40.79246396,-73.97374829,107,1278350-DCA,KATOUNA INC.,PERFECTO PIZZERIA,2479,BROADWAY,NEW YORK,NY,10025
40.7754264,-73.95325438,108,2024028-DCA,CROWN ALLEY LLC,THE PENROSE,1590,2ND AVE,NEW YORK,NY,10028
40.73917759,-74.00702228,102,2080936-DCA,TRAIN DESIGN LLC,PASTIS,54-56,GANSEVOORT ST,NEW YORK,NY,10014
40.71546014,-74.00713161,101,2055674-DCA,BALCONY CAFE INC.,,78,READE ST,NEW YORK,NY,10007
40.74302553,-73.99027073,105,2071752-DCA,ITALIENNE LLC,ITALIENNE,19,W 24TH ST,NEW YORK,NY,10010
40.72167944,-73.98879111,103,2084770-DCA,"EPSTEIN'S BAR, LLC","EPSTEIN'S BAR, LLC",82,STANTON ST,NEW YORK,NY,10002
40.72367808,-74.00455657,102,1321335-DCA,"LUPE'S EAST L.A. KITCHEN, INC.",,110,AVENUE OF THE AMERICAS,NEW YORK,NY,10013
40.7669099,-73.98622034,104,1254413-DCA,SCENIC ROUTE 66 CAFE INC.,ROUTE 66 CAFE,858,9TH AVE,NEW YORK,NY,10019
40.77269402,-73.96487453,108,2009249-DCA,EAT MADISON LLC,ELI'S ESSENTIALS,922,MADISON AVE,NEW YORK,NY,10021
40.75537846,-73.96838843,106,2044905-DCA,EVOO GROUP LLC,PESCATORE,955,2ND AVE,NEW YORK,NY,10022
40.761078,-73.99416302,104,2082895-DCA,PRIVE HOSPITALITY GROUP LLC,,626,10TH AVE,NEW YORK,NY,10036
40.63150812,-74.02752862,310,1237141-DCA,STARBUCKS CORPORATION,STARBUCKS COFFEE COMPANY,7419,3RD AVE,BROOKLYN,NY,11209
40.71907244,-73.99737375,102,0920440-DCA,"JO-RACH, INC.",Caffe Palermo,148,MULBERRY ST,NEW YORK,NY,10013
40.715984,-73.96251998,301,2007742-DCA,NITEHAWK BROOKLYN LLC,NITEHAWK CINEMA/ LO-RES,136,METROPOLITAN AVE,BROOKLYN,NY,11249
40.74447627,-73.98055546,106,2074469-DCA,181 LEXINGTON AVENUE BBQ LLC,BROTHER JIMMY'S BBQ,181,LEXINGTON AVE,NEW YORK,NY,10016
40.7624638,-73.98995022,104,2026132-DCA,701 RESTAURANT LLC,Mom's,701,9TH AVE,NEW YORK,NY,10019
40.75919464,-73.96250288,106,2071243-DCA,FUSHA FUSION RESTAURANT INC,,1065,1ST AVE,NEW YORK,NY,10022
40.8671282,-73.92381023,112,2087678-DCA,BOCADITOS BISTRO & EXPRESSO BAR LLC,,4863,BROADWAY,NEW YORK,NY,10034
40.75578387,-73.96556202,106,1219526-DCA,JOHN-PHIL TAVERN CORP,,350,E 53RD ST,NEW YORK,NY,10022
40.62549784,-74.02388769,310,1360728-DCA,"MUSSELS & MORE, LTD.",,510,80TH ST,BROOKLYN,NY,11209
40.71691204,-74.00833663,101,2082435-DCA,WB CAFE INC.,,134,W BROADWAY,NEW YORK,NY,10013
40.71826504,-74.01033532,101,1384470-DCA,"SARABETH'S TRIBECA, LLC",SARABETH'S,339,GREENWICH ST,NEW YORK,NY,10013
40.73853723,-73.98449411,106,2095272-DCA,LAMARCA INC.,,161,E 22ND ST,NEW YORK,NY,10010
40.65989955,-73.96086829,309,2024384-DCA,2122 BEEKMAN BAR LLC,ERV'S ON BEEKMAN,2122,BEEKMAN PL,BROOKLYN,NY,11225
40.71930286,-74.00624097,101,2091638-DCA,225 WEST BROADWAY CORP,,225,W BROADWAY,NEW YORK,NY,10013
40.76963685,-73.82983925,402,2056097-DCA,JAKK LLC,THE LOWERY BAR & KITCHEN,4302,43RD AVE,SUNNYSIDE,NY,11104
40.71171685,-73.95737146,301,2027033-DCA,CERVECERIA HAVEMEYER LLC,CERVECERIA HAVEMEYER,149,HAVEMEYER ST,BROOKLYN,NY,11211
40.84911538,-73.85342324,211,2014465-DCA,PATRICIAS MORRIS PARK CORP.,,1082,MORRIS PARK AVE,BRONX,NY,10461
40.72922529,-74.00283231,102,2019393-DCA,10 DOWNING RESTAURANT LLC,,10,DOWNING ST,NEW YORK,NY,10014
40.76827899,-73.91110728,401,1224578-DCA,NOOR EL HADA CORP.,,2425,STEINWAY ST,ASTORIA,NY,11103
40.77516979,-73.95684703,108,1282359-DCA,"TIRAMISU RESTAURANT, LLC",TIRAMISU RESTAURANT,1410,3RD AVE,NEW YORK,NY,10028
40.74063251,-74.00169607,104,2088885-DCA,PEANUT FACTORY LLC,BO CAPHE,104,8TH AVE,NEW YORK,NY,10011
40.76516936,-73.96074868,108,2015483-DCA,1268 2ND AVE LLC,SERENA'S,1268,2ND AVE,NEW YORK,NY,10065
40.78430746,-73.97773085,107,2036320-DCA,UPPER WEST HOSPITALITY LLC,,428,AMSTERDAM AVE,NEW YORK,NY,10024
40.72260375,-73.98320988,103,2004733-DCA,MAMA BAR LLC,MAMA'S BAR,34,AVENUE B,NEW YORK,NY,10009
40.85723349,-73.93253005,112,2083473-DCA,LOCKSMITH WINE BAR INC,LOCKSMITH BAR,4463,BROADWAY,NEW YORK,NY,10040
40.72800057,-73.98832101,103,2023932-DCA,EVIR CORP,SAN MARZANO,117,2ND AVE,NEW YORK,NY,10003
40.80098848,-73.96176779,107,2083343-DCA,UWS 994 CORP,,994,COLUMBUS AVE,NEW YORK,NY,10025
40.77092433,-73.95156431,108,2072346-DCA,UPNORTH BURGER LLC,HERO'S CERTIFIED BURGERS,453,E 78TH ST,NEW YORK,NY,10075
40.75527692,-73.96844984,106,1277414-DCA,SHANNON CAFE LLC,THE HORNY RAM,951,2ND AVE,NEW YORK,NY,10022
40.74712892,-73.99009329,105,2024047-DCA,SIXTH AVENUE RESTAURANT MANAGEMENT LLC,L' AMICO,839,AVENUE OF THE AMERICAS,NEW YORK,NY,10001
40.72300485,-73.98594441,103,2028883-DCA,SWAUTO LTD,2A,25,AVENUE A,NEW YORK,NY,10009
40.71939433,-73.95842715,301,2021840-DCA,DAVIS AND DEVORE GROUP LLC,TEDDY'S BAR & GRILL,96,BERRY ST,BROOKLYN,NY,11249
40.69017963,-73.98179371,302,0767745-DCA,FOODS FOR JUNIORS INC,JUNIORS RESTAURANT,386,FLATBUSH AVENUE EXT,BROOKLYN,NY,11201
40.78386013,-73.9780596,107,2055672-DCA,AIN JUPITER LLC,LA SIRENE UWS,416,AMSTERDAM AVE,NEW YORK,NY,10024
40.7720334,-73.95915969,108,2084771-DCA,"JOE & THE JUICE NEW YORK, LLC",JOE & THE JUICE,1320,3RD AVE,NEW YORK,NY,10021
40.67026973,-73.94227562,308,1392177-DCA,BASIL LLC,BASIL,268,KINGSTON AVE,BROOKLYN,NY,11213
40.78881363,-73.97445031,107,2036313-DCA,568 AMSTERDAM LLC,PIZZERIA SIRENETTA,568,AMSTERDAM AVE,NEW YORK,NY,10024
40.72566765,-73.98956612,103,2083475-DCA,SECOND AVE RESTAURANT GROUP INC.,,58,2ND AVE,NEW YORK,NY,10003
40.62490616,-74.03045824,310,2037223-DCA,NANCE CORP.,CAFFE CAFE,8401,3RD AVE,BROOKLYN,NY,11209
40.79549627,-73.97115034,107,2023393-DCA,2580 BROADWAY INC,,2580,BROADWAY,NEW YORK,NY,10025
40.78418113,-73.97738784,107,1387587-DCA,357 HOSPITALITY INC.,SPICE,435,AMSTERDAM AVE,NEW YORK,NY,10024
40.72388904,-74.01052018,101,2074064-DCA,TRIBECA BAKERY LLC,GRECA,452,WASHINGTON ST,NEW YORK,NY,10013
40.67743971,-73.96401618,308,1421052-DCA,BOGMAN LLC,BEARDED LADY,686A,WASHINGTON AVE,BROOKLYN,NY,11238
40.76231207,-73.91130295,401,2010322-DCA,"ROMI BAKERY, INC.",GIAN PIERO BAKERY INC,4417,30TH AVE,ASTORIA,NY,11103
40.74484445,-73.95321809,402,2082017-DCA,ME7782 LLC,,4725,VERNON BLVD,LONG ISLAND CITY,NY,11101
40.71495877,-73.95833974,301,2083471-DCA,JUICERIE IV LLC,,271,METROPOLITAN AVE,BROOKLYN,NY,11211
40.72254715,-73.99348094,102,2088886-DCA,"PLANT SHED PRINCE, INC.",,1,PRINCE ST,NEW YORK,NY,10012
40.77236711,-73.95604734,108,1239318-DCA,LENWICH 77TH LLC,LENWICH,1481,2ND AVE,NEW YORK,NY,10075
40.77029896,-73.9074185,401,1222107-DCA,41-08 REST. CORP.,CHRISTOS STEAK HOUSE,4108,23RD AVE,ASTORIA,NY,11105
40.78926093,-73.97404568,107,1247422-DCA,TB 584 AMSTERDAM REST. CORP.,BODRUM,584,AMSTERDAM AVE,NEW YORK,NY,10024
40.72065689,-73.84554543,406,1135863-DCA,NARITA JAPANESE RESTAURANT INC.,,10708,70TH RD,FOREST HILLS,NY,11375
40.67830808,-73.97935257,306,2052352-DCA,"WILD LIVING, LLC",WILD PARK SLOPE,148,5TH AVE,BROOKLYN,NY,11217
40.77564044,-73.9531423,108,1282786-DCA,BIG DADDY'S II LLC,DUKES,1596,2ND AVE,NEW YORK,NY,10028
40.73004597,-74.00276379,102,2069712-DCA,CHICK & CO LLC,COCU,26,CARMINE ST,NEW YORK,NY,10014
40.86599407,-73.92717751,112,2021585-DCA,JACH RESTAURANT CORP,,219,DYCKMAN ST,NEW YORK,NY,10034
40.79144018,-73.97375953,107,2071756-DCA,"SWEETGREEN NEW YORK, LLC",SWEETGREEN 91ST & BROADWAY,2460,BROADWAY,NEW YORK,NY,10025
40.71006117,-73.84690457,406,1162474-DCA,LCN CAFE CORP.,THEATER CAFE,10603,METROPOLITAN AVE,FOREST HILLS,NY,11375
40.74357391,-73.95392992,402,2066983-DCA,Fanchon Realty Inc,VERNON GRILLE,4820,VERNON BLVD,LONG ISLAND CITY,NY,11101
40.82447424,-73.95219739,109,2086408-DCA,LYNGENET KITCHEN LLC,LYN GENET'S KITCHEN,3473,BROADWAY,NEW YORK,NY,10031
40.76737627,-73.92295684,401,1219506-DCA,"PLAZA PATISSERIE, INC.",,2920,30TH AVE,ASTORIA,NY,11102
40.8160092,-73.93976842,110,2085252-DCA,547 LENOX BARBQ REST CORP,CALLIE'S TAQUERIA & TEQUILA BAR,547,LENOX AVE,NEW YORK,NY,10037
40.70724574,-73.92116881,304,2037229-DCA,THE GLORIOUS DEEP LLC,PEARL'S SOCIAL & BILLY CLUB,40,SAINT NICHOLAS AVE,BROOKLYN,NY,11237
40.73004597,-74.00276018,102,1133014-DCA,"LA MERIDIANA, LTD.",,26,CARMINE ST,NEW YORK,NY,10014
40.6870043,-73.9842573,302,2018729-DCA,"SUD-OUEST 33, INC",BACCHUS,409-411,ATLANTIC AVE,BROOKLYN,NY,11217
40.73693497,-73.99075876,105,2054414-DCA,Barn Joo Union Square Inc,Barn Joo,35,UNION SQ W,NEW YORK,NY,10003
40.77705042,-73.97796074,107,2095010-DCA,CPW REST CORP.,LILLY'S COCKTAIL & WINE BAR,50,W 72ND ST,NEW YORK,NY,10023
40.7621308,-73.96037866,108,2089139-DCA,"TRIPTI, INC.",MOTI MAHAL DELUXE,1149,1ST AVE,NEW YORK,NY,10065
40.79397557,-73.97067788,107,1138270-DCA,"LE-SE AMSTERDAM 732 RESTAURANT, INC.",DIVE BAR,732,AMSTERDAM AVE,NEW YORK,NY,10025
40.72493248,-74.00338412,102,0920983-DCA,"RESTAURANT VENTURES OF NY, INC.",SAVORE RISTORANTE,200,SPRING ST,NEW YORK,NY,10012
40.72618643,-73.98977169,103,2034461-DCA,PLANT BASED PIZZA NEW YORK LLC,00 + CO,65,2ND AVE,NEW YORK,NY,10003
40.74740909,-73.99289745,105,2075842-DCA,339 SEVENTH AVENUE BAKERY LLC,,339,7TH AVE,NEW YORK,NY,10001
40.74170475,-73.98509242,105,2011643-DCA,"26TH STREET RESTAURANT, LLC",,345,PARK AVE S,NEW YORK,NY,10010
40.83533122,-73.94366466,112,2081201-DCA,BOXERS WASHINGTON HEIGHTS LLC,BOXERS,3820,BROADWAY,NEW YORK,NY,10032
40.73908435,-74.00545255,102,2093555-DCA,BANTER WEST VILLAGE LLC,BANTER,643,HUDSON ST,NEW YORK,NY,10014
40.73071493,-73.98640823,103,2039433-DCA,JOYFUL EATS LLC,MIMI CHENG'S DUMPLINGS,179,2ND AVE,NEW YORK,NY,10003
40.67348212,-73.95712552,308,2023866-DCA,BIANCHIBK LLC,CHAVELA'S,736,FRANKLIN AVE,BROOKLYN,NY,11238
40.75452429,-73.9664181,106,1174880-DCA,"THAFATH, INC.",,356,E 51ST ST,NEW YORK,NY,10022
40.73061673,-74.0066281,102,2081586-DCA,KLT VENTURES LLC,THE LEROY HOUSE,430,HUDSON ST,NEW YORK,NY,10014
40.73001458,-73.98315389,103,2011212-DCA,"HEARTH RESTAURANT INVESTORS, LLC",HEARTH,403,E 12TH ST,NEW YORK,NY,10009
40.70825623,-73.94007498,301,2052885-DCA,SJD 220 CORP,BREAD BROTHERS BAGEL CAFE,220,BUSHWICK AVE,BROOKLYN,NY,11206
40.85363419,-73.93083836,112,2072730-DCA,SILVIA L. DURAN,GRITO MEXICAN GRILL,1555,SAINT NICHOLAS AVE,NEW YORK,NY,10040
40.81064522,-73.94363498,110,2074659-DCA,"HH BOWEN, LLC",HARLEM HOOKAH,387,LENOX AVE,NEW YORK,NY,10027
40.76203098,-73.96579704,108,2094522-DCA,THE YORK RESTAURANT BAR INC.,,200,E 60TH ST,NEW YORK,NY,10022
40.64495578,-73.92112349,317,2038114-DCA,FOOTPRINTS CAFE INC.,,5814,CLARENDON RD,BROOKLYN,NY,11203
40.78351163,-73.97850747,107,1125981-DCA,RENOLTA LLC,NICE- MATIN,201,W 79TH ST,NEW YORK,NY,10024
40.72232606,-73.95934167,301,1456625-DCA,51 KENT CAFE INC.,KENT ALE HOUSE,51,KENT AVE,BROOKLYN,NY,11249
40.76136844,-73.92357745,401,2073985-DCA,GRACE BARZ LTD,,3301,BROADWAY,ASTORIA,NY,11106
40.77589833,-73.9819508,107,1282959-DCA,"NANOOSH BROADWAY, LLC",,2012,BROADWAY,NEW YORK,NY,10023
40.72750706,-74.00336621,102,2067783-DCA,SOHO MARKET & BEER MERCHANTS INC,BEERZAAR NYC,213,6TH AVE,NEW YORK,NY,10014
40.72114739,-73.99486639,102,1469471-DCA,14 SPRING STREET CAFE LLC,,14,SPRING ST,NEW YORK,NY,10012
40.77487929,-73.95106679,108,1388781-DCA,EIGHTY THIRD AND FIRST LLC,FELICE,1593,1ST AVE,NEW YORK,NY,10028
40.6081797,-73.96141362,315,2091016-DCA,1123 QUENTIN GRILL CORP,,1123,QUENTIN RD,BROOKLYN,NY,11229
40.6188285,-74.02134945,310,2038459-DCA,BROOKLYN BURGERS LLC,BURGERFL,719,86TH ST,BROOKLYN,NY,11228
40.74675433,-73.98004954,106,2041113-DCA,VER34 LLC,WINE 34,127,E 34TH ST,NEW YORK,NY,10016
40.77727271,-73.9510867,108,1311123-DCA,MAZ MEZCAL INC.,,316,E 86TH ST,NEW YORK,NY,10028
40.71199354,-73.96383881,301,2017316-DCA,104 SOUTH 4TH INC,RANDOLPH BROOKLYN,104,S 4TH ST,BROOKLYN,NY,11249
40.71997532,-73.99378422,103,2009334-DCA,DCB DELANCEY CORPORATION,SEL ROSE,1,DELANCEY ST,NEW YORK,NY,10002
40.73434704,-73.99996031,102,1432061-DCA,CLEW Z. ANGUS (USA) INC.,NIU NOODLE,15,GREENWICH AVE,NEW YORK,NY,10014
40.68971903,-73.97096172,302,2053880-DCA,"AURORA FG, INC",,211,DEKALB AVE,BROOKLYN,NY,11205
40.76576007,-73.91959778,401,2074050-DCA,"NYCBCH III, INC",,3310,30TH AVE,ASTORIA,NY,11103
40.77152044,-73.98173536,107,1422807-DCA,TS3 HOSPITALITY LLC,THE SMITH,1900,BROADWAY,NEW YORK,NY,10023
40.68658284,-73.97561808,302,1314257-DCA,662 FULTON ST RESTAURANT CORP.,DENIZ,662,FULTON ST,BROOKLYN,NY,11217
40.72548033,-73.98376115,103,2086797-DCA,TABLE 20 LLC,,94,AVENUE A,NEW YORK,NY,10009
40.72019465,-74.0098522,101,1420047-DCA,NO MOORE OYSTERS LLC,SMITH & MILLS,71,N MOORE ST,NEW YORK,NY,10013
40.82407613,-73.95187971,109,2087103-DCA,GEISHA 3470 INC,,3470,BROADWAY,NEW YORK,NY,10031
40.77421546,-73.91795564,401,1281431-DCA,BEN TAS CORP.,OTHELLO DELI,2619,24TH AVE,ASTORIA,NY,11102
40.80431507,-73.9477184,110,2039788-DCA,BRUNO IN HARLEM INC.,SETTEPANI,196,LENOX AVE,NEW YORK,NY,10026
40.76782917,-73.98455588,104,1347910-DCA,LEITRIM PUB INC.,,351,W 57TH ST,NEW YORK,NY,10019
40.75631376,-73.92967609,401,0987452-DCA,UKATOSH CORPORATION,,3102,36TH AVE,ASTORIA,NY,11106
40.74462335,-74.00292318,104,1462267-DCA,SPEAK INTEGRATED CORP.,BOCCA DI BACCO,167,9TH AVE,NEW YORK,NY,10011
40.73497805,-74.00801413,102,1110366-DCA,"THE OTHEROOM, INC.",,143,PERRY ST,NEW YORK,NY,10014
40.76456658,-73.91640442,401,2077939-DCA,"CHELLA LUNA, INC",SUGAR FREAK,3711/13,30TH AVE,ASTORIA,NY,11103
40.73715189,-73.99196756,105,2084768-DCA,"CHANGE YOUR LIFE, LLC",,9,E 16TH ST,NEW YORK,NY,10003
40.89844051,-73.86719737,212,1192697-DCA,RAMBLING HOUSE INC.,,4292,KATONAH AVE,BRONX,NY,10470
40.72258844,-73.99617947,102,2070366-DCA,DEZ MULBERRY LLC,DEZ,227,MULBERRY ST,NEW YORK,NY,10012
40.67514367,-73.98113808,306,2087392-DCA,HAENYEO CORP.,,239,5TH AVE,BROOKLYN,NY,11215
40.77376046,-73.9079011,401,2012536-DCA,TOTORE PIZZERIA & RESTAURANT INC,,3620,DITMARS BLVD,ASTORIA,NY,11105
40.76455402,-73.9801128,105,2033302-DCA,"SGR HOSPITALITY GROUP, LLC",,162,W 56TH ST,NEW YORK,NY,10019
40.71925904,-74.0041378,101,2009830-DCA,Anejo Tribeca LLC,Anejo Tribeca,31,WALKER ST,NEW YORK,NY,10013
40.82138853,-73.95065322,109,2041096-DCA,"1600 AMSTERDAM HARLEM GROUP, LLC",FUMO ITALIAN FOOD & PIZZA,1600,AMSTERDAM AVE,NEW YORK,NY,10031
40.73505503,-74.00594295,102,2089500-DCA,CAFE KITSUNE INC.,,550,HUDSON ST,NEW YORK,NY,10014
40.68228978,-73.99592219,306,2033601-DCA,345 COURT ST CORP,MARCO POLO RISTORANTE,345,COURT ST,BROOKLYN,NY,11231
40.72448089,-73.98144881,103,2052739-DCA,EL SAYED 1 CORP,HORUS KABAB HOUSE,93,AVENUE B,NEW YORK,NY,10009
40.76061141,-73.99456013,104,1464672-DCA,PIO PIO OCHO INC.,,604,10TH AVE,NEW YORK,NY,10036
40.78035315,-73.95312454,108,2075383-DCA,"4 EARTH TACOS, LLC",,1568,3RD AVE,NEW YORK,NY,10128
40.83021407,-73.94734032,109,2026129-DCA,3660 BROADWAY RESTAURANT LLC,BONO TRATTORIO,3658,BROADWAY,NEW YORK,NY,10031
40.7170835,-73.95914285,301,1378763-DCA,"135 STUDIO N ADR, INC.",JULIETTE,135,N 5TH ST,BROOKLYN,NY,11211
40.76030145,-73.97516154,105,1414267-DCA,"PQ 53RD STREET, INC.",LE PAIN QUOTIDIEN,7,E 53RD ST,NEW YORK,NY,10022
40.7256349,-73.99186432,103,2006623-DCA,PASTA SHOP LLC,BAR PRIMI,325,BOWERY,NEW YORK,NY,10003
40.77456492,-73.95417205,108,2038098-DCA,CAMPANIA FELIX LLC,SAN MATTEO PIZZERIA E CUCINA,1559,2ND AVE,NEW YORK,NY,10028
40.85523866,-73.88750523,206,1315889-DCA,S.G.M.G. CORP.,FULL MOON PIZZERIA,600,E 187TH ST,BRONX,NY,10458
40.69129542,-73.99730633,302,2084456-DCA,87 ATLANTIC PIZZA CORP.,TABLE 87,87,ATLANTIC AVE,BROOKLYN,NY,11201
40.6856356,-73.99450856,306,2011210-DCA,"BREAD & BUTTER DEVELOPMENT GROUP, LLC",WATTY AND MEG,248,COURT ST,BROOKLYN,NY,11201
40.74037164,-74.00535883,102,1159248-DCA,"675 HUDSON VAULT, LLC",DOS CAMINOS,675,HUDSON ST,NEW YORK,NY,10014
40.73319668,-73.99166134,102,1467798-DCA,P12 NEW YORK LLC,RIBALTA,48,E 12TH ST,NEW YORK,NY,10003
40.58400485,-73.9445715,315,1450950-DCA,"2255 EMMONS CAFE LOUNGE, INC.",PERA CAFE & LOUNGE,2255,EMMONS AVE,BROOKLYN,NY,11235
40.72048003,-73.98933605,103,2051494-DCA,SAUCE MANAGEMENT LLC,SAUCE,78,RIVINGTON ST,NEW YORK,NY,10002
40.73800852,-74.00222284,102,1067914-DCA,"BENNY'S BURRITOS, INC.",BENNY'S BURRITOS,111,GREENWICH AVE,NEW YORK,NY,10014
40.71670071,-74.00811655,101,1421014-DCA,"135 WEST B FOOD & DRINK, LLC",TINY'S AND THE BAR UPSTAIRS,135,W BROADWAY,NEW YORK,NY,10013
40.85359337,-73.88909129,206,2041110-DCA,PRINCE COFFEE HOUSE CORP,,2306,ARTHUR AVE,BRONX,NY,10458
40.76252578,-73.95962036,108,0976266-DCA,"CAFE FOCACCIA, INC.",FELICE WINE BAR,1166,1ST AVE,NEW YORK,NY,10065
40.78003636,-73.9503914,108,2077330-DCA,"DON PABLO, INC.",,1725,2ND AVE,NEW YORK,NY,10128
40.78271416,-73.9479773,108,2051487-DCA,PLJ REST. CORP.,,1814,2ND AVE,NEW YORK,NY,10128
40.76534553,-73.98736864,104,1435075-DCA,STOKES & MCGINLEY INC,ALFIE'S,800,9TH AVE,NEW YORK,NY,10019
40.74449835,-73.98129167,105,1230929-DCA,"VEZZO, INC.",,178,LEXINGTON AVE,NEW YORK,NY,10016
40.76756898,-73.98945848,104,2054417-DCA,CATERED BY PERGOLA LLC,GARDENIA TERRACE,826,10TH AVE,NEW YORK,NY,10019
40.67841113,-73.973256,308,1219900-DCA,"M AND G TOGETHER 4 EVER, LLC",,307,FLATBUSH AVE,BROOKLYN,NY,11217
40.78475753,-73.97739126,107,0953744-DCA,"442 AMSTERDAM REST., CORP.",THE GIN MILL,442,AMSTERDAM AVE,NEW YORK,NY,10024
40.72040911,-73.99657282,102,2091718-DCA,GREENE STREET SUPERFOODS LLC,,384,BROOME ST,NEW YORK,NY,10013
40.85512588,-73.887256,206,1371798-DCA,"DELILLO PASTRY SHOP, INC.",DELILLO PASTRY SHOP,610,E 187TH ST,BRONX,NY,10458
40.74598376,-73.9152043,402,2049156-DCA,THE ALCOVE RESTAURANT INC,THE ALCOVE RESTAURANT,4111,49TH ST,SUNNYSIDE,NY,11104
40.88753923,-73.90712503,208,1377344-DCA,"SALVATORES OF SOHO, INC.",SALVATORES OF SOHO,3738,RIVERDALE AVE,BRONX,NY,10463
40.70832671,-74.00167721,101,1416725-DCA,IDG SEAPORT CORP.,,21,PECK SLIP,NEW YORK,NY,10038
40.78659064,-73.97558146,107,1416762-DCA,NEW YORK BEER CO. LLC,JACOB'S PICKLES,509,AMSTERDAM AVE,NEW YORK,NY,10024
40.72846362,-73.98199973,103,1350510-DCA,"WESTVILLE RESTAURANT, INC.",,173,AVENUE A,NEW YORK,NY,10009
40.68192512,-73.97634809,306,1462753-DCA,BROCCOLINO CORP.,BROCCOLINO,446,DEAN ST,BROOKLYN,NY,11217
40.68808906,-73.95516899,303,2072716-DCA,PILAR CUBAN RESTAURANT INC,PILAR CUBAN EATERY,397,GREENE AVE,BROOKLYN,NY,11216
40.72306815,-73.94239945,301,2006952-DCA,LITTLE DOKEBI INC.,LITTLE DOKEBI,85,DRIGGS AVE,BROOKLYN,NY,11222
40.70274918,-73.99350812,302,2018404-DCA,JULIANA'S UTBB LLC,JULIANA'S,19,OLD FULTON ST,BROOKLYN,NY,11201
40.74079855,-73.98205052,106,1190138-DCA,PMC CORP.,THE ABBEY TAVERN,354,3RD AVE,NEW YORK,NY,10010
40.75965357,-73.99659607,104,2063177-DCA,"CAMGT 510 W 42 RESTAURANT OPERATING, LLC",TREADWELL PARK,510,W 42ND ST,NEW YORK,NY,10036
40.85501838,-73.93714485,112,1387916-DCA,187 RESTAURANT CORP.,REFRIED BEANS MEXICAN GRILL,591,FORT WASHINGTON AVE,NEW YORK,NY,10033
40.72704821,-73.98906441,103,1414471-DCA,TRIM CASTLE CORP.,COOPERS CRAFT AND KITCHEN,87,2ND AVE,NEW YORK,NY,10003
40.75421479,-73.96875353,106,2086166-DCA,Barrel 1005 Corp,Chateau 49,924,2ND AVE,NEW YORK,NY,10022
40.83951119,-73.78340464,210,1251412-DCA,SAMMY'S S.B. REST. CORP.,SHRIMP BOX RESTAURANT,64,CITY ISLAND AVE,BRONX,NY,10464
40.76432735,-73.98854568,104,2062932-DCA,AGGIEPOLO INC,JASPERS TAPHOUSE & KITCHEN,761,9TH AVE,NEW YORK,NY,10019
40.74483993,-73.99182589,104,2080055-DCA,MBG TAVERNS ON 6TH CORP,,757,6TH AVE,NEW YORK,NY,10010
40.71540214,-73.98844586,103,2077339-DCA,"KOSSARS & BEYOND, LLC",,367,GRAND ST,NEW YORK,NY,10002
40.77933456,-73.98085942,107,2080942-DCA,"Blue Bottle Coffee, Inc.",,279,AMSTERDAM AVE,NEW YORK,NY,10023
40.73140995,-74.00685549,102,2077340-DCA,STEM 330 LLC,KISH KASH NYC,455,HUDSON ST,NEW YORK,NY,10014
40.77135039,-73.98254773,107,1229629-DCA,ERS ENTERPRISES INC.,,44,W 63RD ST,NEW YORK,NY,10023
40.78590379,-73.9725881,107,2093340-DCA,THE CONSULATE NYC LLC,,519,COLUMBUS AVE,NEW YORK,NY,10024
40.78674981,-73.97545501,107,2089507-DCA,TIKI CHICKI LLC,,517,AMSTERDAM AVE,NEW YORK,NY,10024
40.7405282,-73.99800803,104,1000225-DCA,"119 7TH AVENUE CAFETERIA, LLC",CAFETERIA,119,7TH AVE,NEW YORK,NY,10011
40.73128656,-74.0041205,102,2092263-DCA,CARA JECM LLC,,47,7TH AVE S,NEW YORK,NY,10014
40.7290277,-74.00029225,102,2025569-DCA,JL SOLO INC,SENZA GLUTEN,206,SULLIVAN ST,NEW YORK,NY,10012
40.7268262,-73.99311973,102,1034252-DCA,31 GREAT JONES RESTAURANT CORP.,VIC'S,31,GREAT JONES ST,NEW YORK,NY,10012
40.71477947,-74.00659766,101,2009248-DCA,61 READE PIZZA INC.,THE SORELLE,61,READE ST,NEW YORK,NY,10007
40.76327243,-73.98138025,105,2087053-DCA,FRESH 54TH LLC,,839,7TH AVE,NEW YORK,NY,10019
40.77195825,-73.95631839,108,1381059-DCA,1475 SECOND AVENUE BAGEL LLC,PICK A BAGEL,1475,2ND AVE,NEW YORK,NY,10075
40.77819846,-73.98223542,107,1223566-DCA,"CAFE 71, INC.",CAFE ARGENTINO,2061,BROADWAY,NEW YORK,NY,10023
40.624014,-74.03084689,310,2091930-DCA,ABI GROUP LLC,LOBO LOCO,8530,3RD AVE,BROOKLYN,NY,11209
40.71723848,-74.01056242,101,1177240-DCA,"GIGINO, INC.",GIGINO TRATTORIA,323,GREENWICH ST,NEW YORK,NY,10013
40.7184933,-73.99755415,102,2082898-DCA,"ZIA MARIA LITTLE ITALY, LLC",ZIA MARIA,138,MULBERRY ST,NEW YORK,NY,10013
40.74347498,-73.95363046,402,2025635-DCA,4819 VERNON KITCHEN LLC,BAREBURGER,4819,VERNON BLVD,LONG ISLAND CITY,NY,11101
40.77243826,-73.95548047,108,2056096-DCA,"BACON & BAGELS, LLC",QUALITY EATS,1496,2ND AVE,NEW YORK,NY,10075
40.74598369,-73.91510686,402,2078943-DCA,4902 SKILLMAN CAFE LLC,P.J. HORGAN'S,4902,SKILLMAN AVE,WOODSIDE,NY,11377
40.74367869,-73.98922407,105,2025205-DCA,LPB1 LLC,LA PECORA BIANCA,1133,BROADWAY,NEW YORK,NY,10010
40.73887574,-74.00561852,102,2038519-DCA,HSNYC LLC,HIGH STREET ON HUDSON,637,HUDSON ST,NEW YORK,NY,10014
40.74063251,-74.00165998,104,1338890-DCA,TUTTO BENE RESTAURANT INC.,CHELSEA RISTORANTE ITALIANO,108,8TH AVE,NEW YORK,NY,10011
40.75736238,-73.96649969,106,2042255-DCA,LENWICH 54TH LLC,LENWICH,1024,2ND AVE,NEW YORK,NY,10022
40.6837666,-73.94391169,303,2025568-DCA,DEED LLC,EUGENE & CO,397,TOMPKINS AVE,BROOKLYN,NY,11216
40.74063251,-74.00158781,104,2081214-DCA,GAUTENG LLC,JACK'S WIFE FREDA,116,8TH AVE,NEW YORK,NY,10011
40.80860635,-73.94459036,110,1323280-DCA,"SYLVIA WOODS, INC.",SYLVIA'S RESTAURANT,328,LENOX AVE,NEW YORK,NY,10027
40.77112496,-73.95936242,108,0811193-DCA,MEZZALUNA ASSOCIATES,,1295,3RD AVE,NEW YORK,NY,10021
40.76408026,-73.98797896,104,2006616-DCA,7 WASHINGTON LANE CORP,ARIA HELLS' KITCHEN,369,W 51ST ST,NEW YORK,NY,10019
40.78351699,-73.97778889,107,2076570-DCA,BL 417 AMSTERDAM NY LLC,BLUESTONE LANE,417,AMSTERDAM AVE,NEW YORK,NY,10024
40.78351699,-73.97782861,107,1396587-DCA,"FLAGSHIP S B AMSTERDAM NY, LLC",SARAVANA BHAVAN,413,AMSTERDAM AVE,NEW YORK,NY,10024
40.71826274,-73.99776699,102,0956923-DCA,"CAFFE SILVESTRI, INC.",CAFFE NAPOLI,191,HESTER ST,NEW YORK,NY,10013
40.72050856,-73.84342813,406,2010362-DCA,OLD VIENNA CAFE LLC,BANTER,10822,QUEENS BLVD,FOREST HILLS,NY,11375
40.78065209,-73.98119124,107,2068212-DCA,KDK LLC,VIAND CAFE,2130,BROADWAY,NEW YORK,NY,10023
40.85549594,-73.93710102,112,2027039-DCA,KISMAT INDIAN RESTAURANT INC,,603,FORT WASHINGTON AVE,NEW YORK,NY,10040
40.76466874,-73.9172418,401,2078344-DCA,DON GENNARO LLC,ANTIKA PIZZERIA,3608,30TH AVE,ASTORIA,NY,11103
40.76347561,-73.98177367,105,2077830-DCA,834 7TH AVENUE LLC,THE STAGECOACH,834,7TH AVE,NEW YORK,NY,10019
40.72793254,-73.99917738,102,1382861-DCA,GMT NEW YORK LLC,GMT TAVERN,142,BLEECKER ST,NEW YORK,NY,10012
40.77990929,-73.95511078,108,1474655-DCA,EAT LEXINGTON 87 LLC,ELI'S ESSENTIALS,1291,LEXINGTON AVE,NEW YORK,NY,10028
40.73515397,-73.99768704,102,0907203-DCA,"FRENCH ROAST, INC.",,78,W 11TH ST,NEW YORK,NY,10011
40.7609762,-73.99057854,104,2084461-DCA,BOYYTHAI CORP,,662,9TH AVE,NEW YORK,NY,10036
40.76061966,-73.99503662,104,2023941-DCA,"WEST SIDE STEAKHOUSE, LLC",West Side Steakhouse,597,10TH AVE,NEW YORK,NY,10036
40.74310275,-73.99662579,104,2066984-DCA,190 SEVENTH AVENUE LLC,MERCHANTS NY,190,7TH AVE,NEW YORK,NY,10011
40.73184102,-74.00374168,102,0670525-DCA,"CALIENTE CAB REST. CO., INC.",CALIENTE CAB CO,61,7TH AVE S,NEW YORK,NY,10014
40.71929986,-74.0098629,101,1365397-DCA,MVNBC CORP.,BENVENUTO CAFE,189,FRANKLIN ST,NEW YORK,NY,10013
40.7611136,-73.92421306,401,1072286-DCA,OMONIA CAFE INC.,,3220,BROADWAY,ASTORIA,NY,11106
40.78387376,-73.97755767,107,0981250-DCA,BSWR CORP.,,423,AMSTERDAM AVE,NEW YORK,NY,10024
40.7408972,-73.98104368,106,2055681-DCA,CRC HOSPITALITY GROUP LLC,HANDCRAFT KITCHEN & COCKTAILS,200,E 27TH ST,NEW YORK,NY,10016
40.73392691,-74.00645162,102,0919917-DCA,"COWGIRL, INC.",COWGIRL AND BAR K,519,HUDSON ST,NEW YORK,NY,10014
40.73115754,-74.00454625,102,2088549-DCA,LE2 LLC,27 MORTON,27 1/2,MORTON ST,NEW YORK,NY,10014
40.71822812,-73.95215815,301,2084767-DCA,3 Richardson Mexico LLC,CASA PUBLICA,594,UNION AVE,BROOKLYN,NY,11211
40.71055793,-73.9635366,301,2009250-DCA,MOTORINO BROADWAY INC.,MOTORINO BROADWAY,139,BROADWAY,BROOKLYN,NY,11211
40.72583791,-74.00936959,102,1003195-DCA,RIOMAR CORP.,KANA,324,SPRING ST,NEW YORK,NY,10013
40.73386942,-74.00245363,102,1347094-DCA,L PLUS L PRODUCTIONS LLC,,113,7TH AVE S,NEW YORK,NY,10014
40.76779304,-73.95991319,108,1418174-DCA,TGD GROUP INC.,BOTTEGA,233,E 70TH ST,NEW YORK,NY,10021
40.73344643,-73.99130409,102,1462355-DCA,PRET A MANGER (USA) LIMITED,PRET A MANGER,821,BROADWAY,NEW YORK,NY,10003
40.73768177,-74.0057808,102,1473879-DCA,"DOUBLE DIP, LLC",,611,HUDSON ST,NEW YORK,NY,10014
40.77781303,-73.95699696,108,1312021-DCA,"LX AVENUE BAGELS, INC.",,1228,LEXINGTON AVE,NEW YORK,NY,10028
40.75585704,-73.92791153,401,2070812-DCA,DENIS AYDA LLC,BEAN'S & LAGER,3301,36TH AVE,ASTORIA,NY,11106
40.73539552,-73.99804787,102,2074660-DCA,KUBBEH LLC,KUBEH,464,AVE OF THE AMERICAS,NEW YORK,NY,10011
40.72256298,-73.9862692,103,1467229-DCA,DOWNTOWN DINING LLC,,5,AVENUE A,New York,NY,10009
40.81971471,-73.81739466,210,1389775-DCA,MEM REST CORP.,WICKED WOLF,4029,E TREMONT AVE,BRONX,NY,10465
40.76176416,-73.99371173,104,2067784-DCA,"WMW REST II, LLC",DIANNE & ELISABETH,644,10TH AVE,NEW YORK,NY,10036
40.76417318,-73.97047802,108,2018728-DCA,PHILIPPE NYC I LLC,PHILIPPE,33,E 60TH ST,NEW YORK,NY,10022
40.72976367,-73.95744651,301,1133916-DCA,TEN ELEVEN HOLDINGS L.L.C.,PENCIL FACTORY,142,FRANKLIN ST,BROOKLYN,NY,11222
40.76347561,-73.98177367,105,1470771-DCA,834 7TH AVENUE LLC,THE STAGECOACH,834,7TH AVE,NEW YORK,NY,10019
40.74250715,-73.99705526,104,1035729-DCA,"MESTRE, INC.",LE ZIE 2000,172,7TH AVE,NEW YORK,NY,10011
40.71044255,-73.96320843,301,2010340-DCA,ELLA HOSPITALITY LLC,MEDOWSWEET,149,BROADWAY,BROOKLYN,NY,11211
40.73498639,-74.00625687,102,2075390-DCA,JOE & THE JUICE NEW YORK LLC,JOE & THE JUICE,549,HUDSON ST,NEW YORK,NY,10014
40.800963,-73.96822231,107,1025180-DCA,"GRILLO, LTD.",BOULEVARD SEAFOOD COMPANY,2745,BROADWAY,NEW YORK,NY,10025
40.7723671,-73.95600041,108,2074997-DCA,STAX77 LLC,STAX NYC,1485,2ND AVE,NEW YORK,NY,10075
40.66559757,-73.98264749,306,2093559-DCA,CASA AZUL. INC,,369,7TH AVE,BROOKLYN,NY,11215
40.85557885,-73.8873456,206,2054427-DCA,LUNA CAFE INC,,601,E 187TH ST,BRONX,NY,10458
40.71800161,-73.99043311,103,1459845-DCA,"TWO BIKES, LLC",DUDLEY'S,85,ORCHARD ST,NEW YORK,NY,10002
40.72845679,-73.99929644,102,1459624-DCA,"SHIP WRECKED BAR AND GRILL, INC.",WICKED WILLY'S,149,BLEECKER ST,NEW YORK,NY,10012
40.78207377,-73.98063476,107,1418144-DCA,"SERAFINA 77 WEST , LLC",,2178,BROADWAY,NEW YORK,NY,10024
40.67989353,-73.97423606,308,1463183-DCA,COOPER SQUARE 267 LLC,MORANS BROOKLYN BARBECUE,267,FLATBUSH AVE,BROOKLYN,NY,11217
40.7808456,-73.94934726,108,0949696-DCA,"THREE DECKER RESTAURANT, LTD.",THREE DECKER RESTAURANT,1746,2ND AVE,NEW YORK,NY,10128
40.70793069,-74.01350416,101,1315977-DCA,RECTOR STREET FOOD ENTERPRISES LTD.,,87-89,GREENWICH STEET,NEW YORK,NY,10006
40.75959396,-73.93472978,401,2078573-DCA,HAMILTON RESTAURANT GROUP INC,BUDDHA TACO BAR,3620,BROADWAY,NEW YORK,NY,10031
40.74240756,-73.95435656,402,1280217-DCA,CALOUNE CORP.,,5012,VERNON BLVD,LONG ISLAND CITY,NY,11101
40.78539971,-73.97693605,107,2037220-DCA,JIN UPPER WEST SIDE CORP,JIN RAMEN,462,AMSTERDAM AVE,NEW YORK,NY,10024
40.68192512,-73.97634809,306,2023072-DCA,SUPERPIZZA01 CORP,PIZZA SUPERSTAR,446,DEAN ST,BROOKLYN,NY,11217
40.72133908,-73.98870819,103,2037219-DCA,JETHOU LLC,PIZZA BEACH,167,ORCHARD ST,NEW YORK,NY,10002
40.73930673,-73.99589344,104,2060572-DCA,"HUMMUS ON 6TH, LLC",,585,6TH AVE,NEW YORK,NY,10011
40.72583162,-73.98349769,103,2020669-DCA,TOZZER LTD,NIAGRA,110,AVENUE A,NEW YORK,NY,10009
40.80605646,-73.96561909,109,1035738-DCA,MILL KOREAN RESTAURANT INC.,,2895,BROADWAY,NEW YORK,NY,10025
40.73449523,-74.00217942,102,2019200-DCA,"002 MERCURY TACOS, LLC",OTTO'S TACOS,131,7TH AVE S,NEW YORK,NY,10014
40.72095314,-73.84540765,406,0918521-DCA,"CABANA-70 ASSOCIATES, L.P.",CABANA RESTAURANT AND BAR,10710,70TH RD,FOREST HILLS,NY,11375
40.73224782,-73.95783821,301,2049841-DCA,HTL GREENPOINT LLC,THE MOONLIGHT MILE,200,FRANKLIN ST,BROOKLYN,NY,11222
40.66990876,-73.95804344,309,2044212-DCA,UNION FRANKLIN ONE INC,,829,FRANKLIN AVE,BROOKLYN,NY,11225
40.74714298,-74.00438855,104,2053879-DCA,210 EMPIRE LLC,EMPIRE DINER,210,10TH AVE,NEW YORK,NY,10011
40.78153281,-73.97923751,107,2050853-DCA,WESTSIDE DONUT AMSTERDAM VENTURES LLC,,353,AMSTERDAM AVE,NEW YORK,NY,10024
40.78616732,-73.97275049,107,0895505-DCA,BARJER CORP.,FIREHOUSE RESTAURANT,522,COLUMBUS AVE,NEW YORK,NY,10024
40.72239511,-73.98298626,103,2051481-DCA,"BECAF, LLC",,33,AVENUE B,NEW YORK,NY,10009
40.78047175,-73.95456878,108,1381014-DCA,"PQ CARNEGIE HILL, INC.",LE PAIN QUOTIDIEN,1309,LEXINGTON AVE,NEW YORK,NY,10128
40.72130656,-73.84492341,406,2012539-DCA,MANGOLICIOUS QUEENS BLVD LTD,RED MANGO YOGURT & SMOOTHIES,10740,QUEENS BLVD,FOREST HILLS,NY,11375
40.77526202,-73.95400909,108,2019563-DCA,BF NY 82 LLC.,BURGERFI,1571,2ND AVE,NEW YORK,NY,10028
40.7643012,-73.96687164,108,1175917-DCA,804 LEXINGTON AVENUE RESTAURANT INC.,BURGER HEAVEN,804,LEXINGTON AVE,NEW YORK,NY,10065
40.72861531,-73.98746581,103,0804523-DCA,"TWO AND EIGHT GOURMET, LTD.",DALLAS BBQ,132,2ND AVE,NEW YORK,NY,10003
40.76582861,-73.98746241,104,2081202-DCA,WESTVILLE HK LLC,,809,9TH AVE,NEW YORK,NY,10019
40.71690104,-74.00866489,101,2059063-DCA,"Kio Restaurant, LLC.",Khe-Yo,157,DUANE ST,NEW YORK,NY,10013
40.71070958,-73.96576927,301,1163028-DCA,KING LUKE INC.,MARLOW AND SONS,81,BROADWAY,BROOKLYN,NY,11211
40.80882066,-73.94504534,110,1465351-DCA,COVE LOUNGE INC.,COVE LOUNGE,325,MALCOLM X BLVD,NEW YORK,NY,10027
40.74033563,-73.98977674,105,1454646-DCA,PQ 933 BROADWAY INC.,LE PAIN QUOTIDIEN,929,BROADWAY,NEW YORK,NY,10010
40.77432415,-73.96408658,108,1365172-DCA,"76TH STREET RESTAURANT , LLC",CAFE BOULUD,20,E 76TH ST,NEW YORK,NY,10021
40.72428557,-73.97889818,103,1102989-DCA,ZUMSCHNEIDER CORP.,ZUMSCHNEIDER,107,AVENUE C,NEW YORK,NY,10009
40.71498997,-74.01548237,101,1421278-DCA,BLUE SMOKE 102 NORTH END AVE LLC,BLUE SMOKE,255,VESEY ST,NEW YORK,NY,10281
40.78028414,-73.98025975,107,1471902-DCA,"BABY OLIVER, LLC",PICCOLO CAFE,313,AMSTERDAM AVE,NEW YORK,NY,10023
40.74364166,-73.95887756,402,2092751-DCA,PIATTO LLC,,Jan-50,50TH AVE,LONG ISLAND CITY,NY,11101
40.68195027,-73.95853703,303,2085978-DCA,ISABELLA LIMON LLC,,549,CLASSON AVE,BROOKLYN,NY,11238
40.72597613,-73.86988617,406,1222376-DCA,BAROSA INC.,,6229,WOODHAVEN BLVD,REGO PARK,NY,11374
40.72024443,-73.99676403,102,1388457-DCA,"ELI-LILLA, INC.",,385,BROOME ST,NEW YORK,NY,10013
40.70410468,-74.0117253,101,2049842-DCA,"OBBM, LLC",BROADSTONE TAP HOUSE,88,BROAD ST,NEW YORK,NY,10004
40.76478787,-73.96997957,108,1463548-DCA,SOFIA 61ST STREET CORP.,SERAFINA,33,E 61ST ST,NEW YORK,NY,10065
40.73109155,-74.00686267,102,2028884-DCA,VILLAGE RESTAURANT GROUP LLC,HUDSON CLEARWATER,447,HUDSON ST,NEW YORK,NY,10014
40.77684522,-73.95273706,108,2038594-DCA,"1621 RESTAURANTS, INC.",,1621,2ND AVE,NEW YORK,NY,10028
40.80119049,-73.95857834,110,1421719-DCA,BLUE OCEAN GROUP INC.,CAFE AMRITA,301,W 110TH ST,NEW YORK,NY,10026
40.58405592,-73.94812485,315,1469748-DCA,GOOD VISION TASTE INC.,SIGNATURE & FABERGE,2007,EMMONS AVE,BROOKLYN,NY,11235
40.75483236,-73.96876046,106,1384218-DCA,VINO POSTO CORP.,LA CAVA,939,2ND AVE,NEW YORK,NY,10022
40.77391153,-73.90802726,401,2087971-DCA,"C & S GOURMET MEALS & DELI, INC",,3612,DITMARS BLVD,ASTORIA,NY,11105
40.68985965,-73.99191917,302,2085107-DCA,SWEETGREEN NEW YORK LLC,SWEETGREEN,127,COURT ST,BROOKLYN,NY,11201
40.72460769,-73.94756808,301,2035686-DCA,GFLC MARKET LLC,,114,NASSAU AVE,BROOKLYN,NY,11222
40.72939442,-73.9842076,103,2048646-DCA,177 1ST AVE LLC,LITTLE TONG NOODLE SHOP,177,1ST AVE,NEW YORK,NY,10003
40.71763757,-73.94504837,301,2078104-DCA,425 GRAHAM RESTAURANT INC,,425,GRAHAM AVE,BROOKLYN,NY,11211
40.73059136,-73.98597529,103,1189217-DCA,PEPRICO INC.,CACIO E PEPE,182,2ND AVE,NEW YORK,NY,10003
40.79359961,-73.97093447,107,2068868-DCA,ELSALAM ENTERPRISES INC,THE HALAL GUYS,720,AMSTERDAM AVE,NEW YORK,NY,10025
40.78090372,-73.97636709,107,1392090-DCA,IXHEL CORPORATION,CAFE FRIDA,368,COLUMBUS AVE,NEW YORK,NY,10024
40.11238534,-77.51958437,0,1164852-DCA,MULBERRY STREET BAR LLC,MULBERRY STREET BAR,176 1/2,MULBERRY ST,NEW YORK,NY,10013
40.72719142,-74.00320023,102,2090193-DCA,PRINKIPAS LLC,LOLA TAVERNA,210,6TH AVE,NEW YORK,NY,10014
40.74216569,-73.98375709,105,1133422-DCA,"BLUE SMOKE, LLC",,116,E 27TH ST,NEW YORK,NY,10016
40.71558763,-73.95920149,301,2071788-DCA,"SWEETGREEN NEW YORK, LLC",SWEETGREEN WILLIAMSBURG,162,N 4TH ST,BROOKLYN,NY,11211
40.74012066,-73.98243683,106,2050844-DCA,CARRA LLC,DOG & BONE,338,3RD AVE,NEW YORK,NY,10010
40.72332679,-73.99650412,102,2009341-DCA,265 LAFAYETTE RISTORANTE LLC,,263,LAFAYETTE ST,NEW YORK,NY,10012
40.80137112,-73.96529644,107,1275484-DCA,THAI MARKET INC.,,960,AMSTERDAM AVE,NEW YORK,NY,10025
40.76332168,-73.92205905,401,2075843-DCA,ALADDIN AND PRINCESS ZALABIA INC,MADAME SOUSOU,3105,33RD ST,ASTORIA,NY,11106
40.8033551,-73.96382891,109,1028336-DCA,"V & T RESTAURANT, INC.",,1024,AMSTERDAM AVE,NEW YORK,NY,10025
40.74220249,-73.99736201,104,1104424-DCA,160 BISTRO INC.,LE SINGE VERT,160,7TH AVE,NEW YORK,NY,10011
40.76622574,-73.95975168,108,2074000-DCA,1304A SECOND AVENUE ASSOCIATES LLC,DONNA MARGHERITA,1304A,2ND AVE,NEW YORK,NY,10065
40.72115008,-73.99370114,103,2038230-DCA,BOWERY HOSPITALITY ASSOCIATES LLC,VANDAL,199,BOWERY,NEW YORK,NY,10002
40.7343772,-74.0027351,102,2055694-DCA,WHILE WE WERE YOUNG LLC,,183,W 10TH ST,NEW YORK,NY,10014
40.6870911,-73.97797966,302,2082430-DCA,La Lafayette LLC,TACOMBI FORT GREENE,25,LAFAYETTE AVE,BROOKLYN,NY,11217
40.78393688,-73.97751792,107,2082428-DCA,"FRANK MAC'S PLACE, LLC",FRANK MACS PUB,425,AMSTERDAM AVE,NEW YORK,NY,10024
40.77802805,-73.98078758,107,2071242-DCA,EPHESUS CORP,SEVEN HILLS MEDITERRANEAN GRILL,158,W 72ND ST,NEW YORK,NY,10023
40.78285833,-73.95128842,108,1453505-DCA,92ND AND 3RD REST CORP.,3RD AVE ALE HOUSE,1644,3RD AVE,NEW YORK,NY,10128
40.75518148,-73.97083212,106,0978961-DCA,"ST. JAMES ASSOCIATES, L.P.",SMITH & WOLLENSKY,201,E 49TH ST,NEW YORK,NY,10017
40.72120237,-73.99760095,102,1227042-DCA,"114 KENMARE ASSOCIATES, LLC",LA ESQUINA,106,KENMARE ST,NEW YORK,NY,10012
40.7856357,-73.97666152,107,1218332-DCA,UPPER WEST REST. CORP.,FRED'S,476,AMSTERDAM AVE,NEW YORK,NY,10024
40.78552036,-73.97638351,107,0885881-DCA,83/AMSTERDAM RESTAURANT CORP.,HI-LIFE BAR & GRILL,477,AMSTERDAM AVE,NEW YORK,NY,10024
40.7260437,-73.98978614,103,1282650-DCA,"MEATH TRAILS, INC.",GRAY MARE,61,2ND AVE,NEW YORK,NY,10003
40.75492185,-73.96498496,106,2025570-DCA,"JONILU, LLC.",LA VILLETTA,398,E 52ND ST,NEW YORK,NY,10022
40.77406628,-73.91290478,401,1422684-DCA,B5 LLC,BAREBURGER,2301,31ST ST,ASTORIA,NY,11105
40.7651679,-73.91671773,401,1451850-DCA,VEM GROUP CORP.,CRAVE,2855,36TH ST,ASTORIA,NY,11103
40.80391473,-73.94859284,110,2074652-DCA,EL ENCANTO DE LOLA 2 LLC,EL ENCANTO D LOLA 2,175,LENOX AVE,NEW YORK,NY,10026
40.68692863,-73.97534752,302,2050278-DCA,LE BABA COOL INC,BABA COOL,64,LAFAYETTE AVE,BROOKLYN,NY,11217
40.70682421,-73.92288615,304,2020261-DCA,BROOKLYN ACQUISITION HOLDING LLC,,19,WYCKOFF AVE,BROOKLYN,NY,11237
40.75678336,-73.96693313,106,2077822-DCA,LE GARAGE CORP,WANDERLUST,1004,2ND AVE,NEW YORK,NY,10022
40.77982235,-73.95058293,108,2044095-DCA,TSG 89 CORP.,MIDNIGHT EXPRESS,1715,2ND AVE,NEW YORK,NY,10128
40.76035225,-73.92261843,401,2078574-DCA,"LOGANBERRY, LLC",THE HIGH WATER,3420,BROADWAY,ASTORIA,NY,11106
40.72680665,-73.98877221,103,1258524-DCA,88 2ND AVE. FOOD CORP.,THE KITCHEN SINK,88,2ND AVE,NEW YORK,NY,10003
40.7740983,-73.90818586,401,2071246-DCA,JOANNIDES GROUP LLC,QUEEN'S ROOM,3602,DITMARS BLVD,ASTORIA,NY,11105
40.76469895,-73.91727786,401,2014853-DCA,KI MOON RESTAURANT CORP.,PINK NORI,3606,30TH AVE,ASTORIA,NY,11103
40.77477398,-73.9087951,401,2091698-DCA,"LEO BRUNO RESTAURANT, INC.",,3502,DITMARS BLVD,ASTORIA,NY,11105
40.86477807,-73.927027,112,2057875-DCA,FRANCISCO & FRANCISCO INC,POP AND POUR,200,DYCKMAN ST,NEW YORK,NY,10040
40.70252077,-73.9865907,302,1418616-DCA,"PEDRO'S BAR & RESTAURANT, INC.",,73,JAY ST,BROOKLYN,NY,11201
40.82745407,-73.95000916,109,2047686-DCA,SUSHI VIDA 146 LLC,MAMASUSHI,3569,BROADWAY,NEW YORK,NY,10031
40.77589833,-73.9819508,107,1326142-DCA,68TH ST CAFE INC.,SOLE BISTRO ITALIANO,2014,BROADWAY,NEW YORK,NY,10023
40.71498997,-74.01547516,101,2030561-DCA,"BAGEL ON MURRAY STREET, LLC",PICK A BAGEL,251,VESEY ST,NEW YORK,NY,10282
40.78455711,-73.97714578,107,1283643-DCA,JPS VENTURES INC.,,441,AMSTERDAM AVE,NEW YORK,NY,10024
40.77467039,-73.95722645,108,0835262-DCA,"TARO REST, INC.",DUE,1396,3RD AVE,NEW YORK,NY,10075
40.7184876,-74.00729427,101,1166759-DCA,TK REST. CORP.,SQUARE DINER,33,LEONARD ST,NEW YORK,NY,10013
40.77643858,-73.9792391,107,1219794-DCA,71 WINE BAR CAFE OPERATING CORP.,BIN 71,237,COLUMBUS AVE,NEW YORK,NY,10023
40.73170021,-73.98569362,103,2085588-DCA,DAIMYO GROUP LLC,,207,2ND AVE,NEW YORK,NY,10003
40.73949485,-73.98240812,106,2027041-DCA,Masa 8 LLC,NATSUMI,323,3RD AVE,NEW YORK,NY,10010
40.7674114,-73.96834301,108,1200796-DCA,PK & SON LLC,MATCH 65,27,E 65TH ST,NEW YORK,NY,10065
40.7267191,-73.99221776,102,2088550-DCA,MARLINSPIKE HALL LLC,THE JONES,54,GREAT JONES ST,NEW YORK,NY,10012
40.70380846,-73.99065154,302,2023398-DCA,"COBBLESTONE RESTAURANT GROUP, LLC",ATRIUM DUMBO,15,MAIN ST,BROOKLYN,NY,11201
40.74101952,-73.99815597,104,1470945-DCA,"THREE TOP CHELSEA, LLC",THE COMMONS CHELSEA,128,7TH AVE,NEW YORK,NY,10011
40.72909081,-74.00218646,102,1097155-DCA,BAR GIACOSA CORP.,BAR PITTI,268,AVENUE OF THE AMERICAS,NEW YORK,NY,10014
40.7778053,-73.97836128,107,1392078-DCA,72ND & COLUMBUS RESTAURANT LLC,AG KITCHEN,269,COLUMBUS AVE,NEW YORK,NY,10023
40.76126409,-73.98736581,104,1079412-DCA,C.A.P. RESTAURANT CORP.,SOMBRERO MEXICAN RESTAURANT,303,W 48TH ST,NEW YORK,NY,10036
40.77379892,-73.90793354,401,2057407-DCA,"UNCLE JACK'S MEAT COMPANY ASTORIA, INC",UNCLE JACKS MEAT HOUSE,3618,DITMARS BLVD,ASTORIA,NY,11105
40.72297182,-73.98519041,103,1097153-DCA,RAGUBOY CORP.,,156,E 2ND ST,NEW YORK,NY,10009
40.84704705,-73.8321388,210,,"GEORGE'S SCC, INC.",GEORGE'S RESTAURANT,3000,BUHRE AVE,BRONX,NY,10461
40.73636153,-74.00601884,102,2050277-DCA,JUICERIE 3 LLC,THE BUTCHER'S DAUGHTER,581,HUDSON ST,NEW YORK,NY,10014
40.74370488,-73.97985558,106,2051591-DCA,"RUBY'S MIDTOWN, LLC",,442,3RD AVE,NEW YORK,NY,10016
40.85442201,-73.88881156,206,1336537-DCA,PARISIENNE CAFE INCORPORATED,,2339,ARTHUR AVE,BRONX,NY,10458
40.71053595,-73.96347169,301,2089529-DCA,Cajun Project LLC,,141,BROADWAY,BROOKLYN,NY,11211
40.78116995,-73.9763345,107,2088548-DCA,HLD COLUMBUS LLC,GARI COLUMBUS,370,COLUMBUS AVE,NEW YORK,NY,10024
40.78450427,-73.97388504,107,1415817-DCA,SPRING NATURAL CORP.,SPRING NATURAL KITCHEN,474,COLUMBUS AVE,NEW YORK,NY,10024
40.76910605,-73.96297385,108,1469257-DCA,BRASSERIE COGNAC EAST CORP.,,963,LEXINGTON AVE,NEW YORK,NY,10021
40.72946686,-73.99866502,102,1279573-DCA,"HALF PINT ON THOMPSON, LLC",THE HALF PINT,234,THOMPSON ST,NEW YORK,NY,10012
40.71952524,-73.99499999,102,1458267-DCA,PIACERE ENTERPRISES LLC,PIACERE,351,BROOME ST,NEW YORK,NY,10013
40.72109806,-73.99698766,102,2035053-DCA,SPRING SOHO INC,SPRING NATURAL,98,KENMARE ST,NEW YORK,NY,10012
40.67301955,-73.9833197,306,1166206-DCA,STONE PARK CORNER LLC,STONE PARK CAFE,324,5TH AVE,BROOKLYN,NY,11215
40.78875051,-73.97449367,107,2056574-DCA,"LA PETIT AMELIE, LLC",AMELIE,566,AMSTERDAM AVE,NEW YORK,NY,10024
40.76078433,-73.99464314,104,2033621-DCA,TOR RESTAURANT LLC,,607,10TH AVE,NEW YORK,NY,10036
40.70751701,-74.0015762,101,1260890-DCA,"GOAT FIFTY, LLC",COCO BISTRO,36,PECK SLIP,NEW YORK,NY,10038
40.77506859,-73.91354614,401,1169199-DCA,SYVROS RESTAURANT CORP.,ZORBA'S,2905,23RD AVE,ASTORIA,NY,11105
40.72055454,-73.99522358,102,2055365-DCA,153 ELIZABETH HOTEL LLC,,30,KENMARE ST,NEW YORK,NY,10012
40.72239508,-73.98276619,103,2047696-DCA,CAFE CORTADITO LLC,CAFE CORTADITO,210,E 3RD ST,NEW YORK,NY,10009
40.76535357,-73.91920478,401,2032424-DCA,TIG ASTORIA LLC,SWEET AFTON,3009,34TH ST,ASTORIA,NY,11103
40.71992605,-73.99721499,102,1274929-DCA,"LA MELA RISTORANTE ITALIANO, INC.",,167,MULBERRY ST,NEW YORK,NY,10013
40.72487836,-73.97847227,103,2068738-DCA,MOS EISLEY LLC,LOVERBOY,127,AVENUE C,NEW YORK,NY,10009
40.78616732,-73.97277216,107,1006183-DCA,"520 COLUMBUS AVE., LTD.",GOOD ENOUGH TO EAT,520,COLUMBUS AVE,NEW YORK,NY,10024
40.72096626,-73.99541476,102,2080663-DCA,CHARLEY ST. INC,CHARLEY ST.,41,KENMARE ST,NEW YORK,NY,10012
40.76203923,-73.97688999,105,1437756-DCA,"33 WEST 54TH STREET, LLC",Il GATTOPARDO,33,W 54TH ST,NEW YORK,NY,10019
40.74494786,-73.92135156,402,1284057-DCA,"MICKEY'S PLACE ON 43RD ST., LTD.",BAR 43,4306,43RD ST,SUNNYSIDE,NY,11104
40.76413761,-73.96157596,108,1028755-DCA,1236 SECOND AVENUE REST. CORP.,SILVER STAR RESTAURANT,1236,2ND AVE,NEW YORK,NY,10065
40.74603418,-74.00137862,104,2051463-DCA,AROKA HOSPITALITY LLC,AROQA,206,9TH AVE,NEW YORK,NY,10011
40.72924453,-74.00096335,102,2042774-DCA,E2 185 BLEECKER LLC,BY CHLOE,185,BLEECKER ST,NEW YORK,NY,10012
40.74322631,-73.99979069,104,1193339-DCA,"EISEN & SON, INC.",LASAGNA RESTAURANT,196,8TH AVE,NEW YORK,NY,10011
40.69953498,-73.9921416,302,1317766-DCA,BROOKLYN HEIGHTS WINE BAR LLC,,50,HENRY ST,BROOKLYN,NY,11201
40.76034794,-73.97439987,105,1248652-DCA,22 EAST 54TH STREET RESTAURANT CORP.,PAPILLON,22,E 54TH ST,NEW YORK,NY,10022
40.77205173,-73.95674796,108,2021587-DCA,PQ EAST 77TH INC,LE PAIN QUOTIDIEN,252,E 77TH ST,NEW YORK,NY,10075
40.67734613,-73.95546102,308,2048487-DCA,THE CRABBY SHACK LLC,THE CRABBY SHACK,613,FRANKLIN AVE,BROOKLYN,NY,11238
40.77721776,-73.95097481,108,2072106-DCA,"LATOUR FL RESTAURANT ASSOCIATES, LLC",LITTLE FROG,322,E 86TH ST,NEW YORK,NY,10028
40.72889169,-73.98129965,103,1343042-DCA,188 AVE A TAKE OUT FOOD CORP.,,188,AVENUE A,NEW YORK,NY,10009
40.72376963,-73.95178618,301,1309076-DCA,"18 BEDFORD AVE., LLC",,18,BEDFORD AVE,BROOKLYN,NY,11222
40.78490493,-73.95567435,108,1191523-DCA,SHIRT RESTAURANT CORP.,ISLAND,1305,MADISON AVE,NEW YORK,NY,10128
40.71898459,-73.99691561,102,2023879-DCA,MARGHERITA CORPORATION,MARGHERITA,197,GRAND ST,NEW YORK,NY,10013
40.73133434,-73.95929648,301,2056577-DCA,"RIVERWALK MANAGEMENT, INC",NAKED DOG,47,JAVA ST,BROOKLYN,NY,11222
40.80815155,-73.95980219,109,2028015-DCA,MAYFAIR WEST AT CHELSEA MARKET LLC,,1187,AMSTERDAM AVE,NEW YORK,NY,10027
40.77258386,-73.9558053,108,2042216-DCA,CALEXICO 122 LLC,,1491,2ND AVE,NEW YORK,NY,10075
40.80215586,-73.96446889,107,2038092-DCA,AMITY HALL UPTOWN INC.,AMITY HALL,982,AMSTERDAM AVE,NEW YORK,NY,10025
40.71458227,-73.96519373,301,2019767-DCA,12 CHAIRS BYN LLC,12 CHAIRS CAFE,342,WYTHE AVE,BROOKLYN,NY,11249
40.79291797,-73.94559297,111,2052343-DCA,EAST HARLEM BOTTLING CO LLC,EAST HARLEM BOTTLING CO.,1711,LEXINGTON AVE,NEW YORK,NY,10029
40.72716934,-73.99387375,102,2049839-DCA,ATLA LAFAYETTE LLC,,372,LAFAYETTE ST,NEW YORK,NY,10012
40.73071891,-73.95761908,301,2080300-DCA,"CARRIE'S HOSPITALITY, LLC",ELDER GREENE,160,FRANKLIN ST,BROOKLYN,NY,11222
40.73374045,-73.99976907,102,1344146-DCA,OLIO RESTAURANTS LLC,OLIO E PIU,3,GREENWICH AVE,NEW YORK,NY,10014
40.80548003,-73.96548574,109,1463606-DCA,EFTIHIA REST INC.,TOM'S RESTAURANT,2880,BROADWAY,NEW YORK,NY,10025
40.73250518,-73.99464181,102,2021586-DCA,YERINA RESTAURANT CORP.,ARTE RESTAURANT,21,E 9TH ST,NEW YORK,NY,10003
40.74175238,-73.99964995,104,1346238-DCA,"HURRICANE STRAUSS, INC.",,246,W 18TH ST,NEW YORK,NY,10011
40.68615905,-73.98536445,302,1323228-DCA,112 RESTAURANT CORP.,BUILDING ON BOND,112,BOND ST,BROOKLYN,NY,11217
40.86750762,-73.92071489,112,2048669-DCA,4946 BROADWAY RESTAURANT LLC,TUBBY HOOK TAVERN,4946,BROADWAY,NEW YORK,NY,10034
40.78665651,-73.97554171,107,2008459-DCA,EE BAR LLC,E'S BAR,511,AMSTERDAM AVE,NEW YORK,NY,10024
40.77215562,-73.95566839,108,1190933-DCA,"BY THE GLASS, INC. UVA",,1486,2ND AVE,NEW YORK,NY,10075
40.67022568,-73.98564552,306,2068864-DCA,RACHEL'S TORTILLERIA INC,VARRIO 408,412,5TH AVE,BROOKLYN,NY,11215
40.78385414,-73.95004912,108,1454085-DCA,1679 3RD AVENUE RESTAURANT CORP.,THE DISTRICT,1679,3RD AVE,NEW YORK,NY,10128
40.71808983,-73.9981061,102,1189682-DCA,IL COMMENDATORE RESTAURANT INC.,CASA BELLA RESTAURANT,127,MULBERRY ST,NEW YORK,NY,10013
40.78217581,-73.95350962,108,2006658-DCA,LE BON NY CORP.,CORRADO BAKERY,1361,LEXINGTON AVE,NEW YORK,NY,10128
40.77332956,-73.92709472,401,2041100-DCA,ASTORIA CRAFT LLC,ASTORIA CRAFT,1801,26TH RD,ASTORIA,NY,11102
40.7756751,-73.90986981,401,2070023-DCA,KILO ASTORIA INC,,3127,DITMARS BLVD,ASTORIA,NY,11105
40.7297577,-74.00491418,102,2086718-DCA,C7 AVE SOUTH LLC,,1,7TH AVE S,NEW YORK,NY,10014
40.71696968,-74.00829334,101,0945762-DCA,"136 WEST BROADWAY, INC.",EDWARD'S,136,W BROADWAY,NEW YORK,NY,10013
40.71995898,-73.99685423,102,1394721-DCA,"ST. JUDE ENTERPRISES, LLC",BENITO ONE,174,MULBERRY ST,NEW YORK,NY,10013
40.74235517,-73.98442466,105,1457685-DCA,SARABETH'S PAS LLC,SARABETH'S,381,PARK AVE S,NEW YORK,NY,10016
40.74351499,-73.97716347,106,2004096-DCA,"E & E RESTAURANT 2, LLC",HILL & BAY,581,2ND AVENUE,NEW YORK,NY,10016
40.64857896,-73.97708064,307,2023069-DCA,"LULA ENTERPRISES, LLC",HAMILTONS,2826,FORT HAMILTON PKWY,BROOKLYN,NY,11218
40.78988418,-73.97495188,107,2006949-DCA,BUKEFAL LLC,CIBO E VINO,2418,BROADWAY,NEW YORK,NY,10024
40.73000205,-74.00288285,102,2038460-DCA,"BL 30 CARMINE NY, LLC",,30,CARMINE ST,NEW YORK,NY,10014
40.76061322,-73.92294661,401,2050841-DCA,"34-02 Broadway Tavern, Inc.",The Trestle,3402,BROADWAY,ASTORIA,NY,11106
40.71754474,-73.95231376,301,2018403-DCA,WOODFIRE COLLISION LLC,,567,UNION AVE,BROOKLYN,NY,11211
40.76433608,-73.91649495,401,2083468-DCA,3706 THIRTY INC.,,3706,30TH AVE,ASTORIA,NY,11103
40.80605647,-73.96563716,109,1314421-DCA,2896 BROADWAY FOOD SERVICE INC.,COMMUNITY FOOD & JUICE,2893,BROADWAY,NEW YORK,NY,10025
40.76824652,-73.98571465,104,1415773-DCA,MS RESTAURANT OWNERS LLC,MORNING STAR RESTAURANT,879,9TH AVE,NEW YORK,NY,10019
40.68671682,-73.99094961,302,2071754-DCA,R&G 86 LLC,NUMERO 28,68,BERGEN ST,BROOKLYN,NY,11201
40.73486305,-73.99989536,102,1454964-DCA,"18 GREENWICH AVENUE, LLC",ROSEMARY'S,18,GREENWICH AVE,NEW YORK,NY,10011
40.84608247,-73.93872193,112,2070749-DCA,EL CONDE M&G INC,,4139,BROADWAY,NEW YORK,NY,10033
40.7184933,-73.9975794,102,1240086-DCA,PAESANO REST. CORP.,,136,MULBERRY ST,NEW YORK,NY,10013
40.74418112,-73.92400857,402,2042866-DCA,"IL SOLE, LLC",SOLELUNA,4345,40TH STREET,SUNNYSIDE,NY,11104
40.76596029,-73.98686673,104,1309603-DCA,"CHOW DOWN, INC.",EL CENTRO,824,9TH AVE,NEW YORK,NY,10019
40.76846105,-73.95526651,108,1420350-DCA,"EAST SIDE BURGERS, LLC",BAREBURGER,1370,1ST AVE,NEW YORK,NY,10021
40.72983457,-74.00452812,102,1325458-DCA,"SPUNTO, INC.",,65,CARMINE ST,NEW YORK,NY,10014
40.75991404,-73.99130785,104,1094184-DCA,DANA'S LLC,,630,9TH AVE,NEW YORK,NY,10036
40.88747403,-73.90458987,208,1234454-DCA,BURKE'S BEAL BOCHT CORP.,,445,W 238TH ST,BRONX,NY,10463
40.74379533,-73.97914822,106,1339224-DCA,VINO FIVE GROUP LLC,Vinotapa,201,E 31ST ST,NEW YORK,NY,10016
40.72925001,-73.99824289,102,1431733-DCA,DESSYN BAKERY CORP.,MILLEFEUILLE BAKERY CORP.,552,LAGUARDIA PL,NEW YORK,NY,10012
40.58400481,-73.9444851,315,2049840-DCA,DESSERT PALACE BOSE INC,EMMONS PALACE,2267,EMMONS AVE,BROOKLYN,NY,11235
40.80797585,-73.95249822,110,2022426-DCA,ANGEL OF HARLEM LLC,,2272,FREDERICK DOUGLASS BLVD,NEW YORK,NY,10027
40.72378756,-74.00961463,101,1359208-DCA,TECTON CAFE INC.,,460,GREENWICH ST,NEW YORK,NY,10013
40.77563098,-73.95703809,108,2087610-DCA,VIRGILIA CAFE INC,,168,E 81ST ST,NEW YORK,NY,10028
40.73315026,-74.00376701,102,2008442-DCA,FIFTYONE MERCHANTS LLC.,VIA CAROTA,51,GROVE ST,NEW YORK,NY,10014
40.77495845,-73.90950973,401,1318210-DCA,WATAWA INC.,WATAWA JAPANESE REST,3310,DITMARS BLVD,ASTORIA,NY,11105
40.78159868,-73.97919777,107,1246104-DCA,DLS CHICKEN CORP.,,355,AMSTERDAM AVE,NEW YORK,NY,10024
40.70983256,-73.84837675,406,2021901-DCA,NICOBAR LTD,,10420,METROPOLITAN AVE,FOREST HILLS,NY,11375
40.78125564,-73.97946147,107,2071753-DCA,JOE & THE JUICE NEW YORK LLC,JOE & THE JUICE,343,AMSTERDAM AVE,NEW YORK,NY,10024
40.68697514,-73.97466241,302,2032891-DCA,"86 SOUTH PORTLAND, LLC",,86,S PORTLAND AVE,BROOKLYN,NY,11217
40.76430308,-73.91640836,401,2021274-DCA,"BUTCHER KING,INC",BUTCHER BAR SMOKEHOUSE,3710,30TH AVE,ASTORIA,NY,11103
40.82865012,-73.9485376,109,1428232-DCA,SOUTH LAKE HOSPITALITY GROUP INC.,HARLEM PUBLIC,3612,BROADWAY,NEW YORK,NY,10031
40.73224176,-74.00353242,102,2092914-DCA,BLEEKER STREET PIZZA CORP,,69-71,7TH AVE S,NEW YORK,NY,10014
40.73188482,-74.00634318,102,0979768-DCA,MANEKEN CORP.,,466,HUDSON ST,NEW YORK,NY,10014
40.72894739,-73.98713741,103,0933853-DCA,VESELKA ENTERPRISES LTD.,,144,2ND AVE,NEW YORK,NY,10003
40.72940647,-74.00115457,102,2038956-DCA,NJJMJ INC,DENINO'S PIZZERIA AND TAVERN,93,MACDOUGAL ST,NEW YORK,NY,10012
40.7381727,-73.98899763,105,2055194-DCA,CRAFT LLC,CRAFT RESTAURANT,43,E 19TH ST,NEW YORK,NY,10003
40.721367,-73.99547245,102,2021905-DCA,"TAVA CAFE, LLC",BALZEM,202,MOTT ST,NEW YORK,NY,10012
40.74362799,-73.97966433,106,2037395-DCA,E & R U.S. VENTURES LLC,HUMMUS KITCHEN,444,3RD AVE,NEW YORK,NY,10016
40.73497901,-73.95829835,301,2083466-DCA,258 FRANKLIN LLC,,258,FRANKLIN ST,BROOKLYN,NY,11222
40.80707532,-73.94569337,110,2075845-DCA,CARIBBEAN STARR INC,,280,LENOX AVE,NEW YORK,NY,10027
40.73815363,-73.99063951,105,1221181-DCA,ABRUZZO DOCG INC.,,15,E 18TH ST,NEW YORK,NY,10003
40.79339653,-73.97107902,107,2087605-DCA,CABRERA ARGUDO CORP,RANCHO TAQUILERIA,718,AMSTERDAM AVE,NEW YORK,NY,10025
40.74965441,-73.99509879,105,2006948-DCA,402 8TH AVE. REST. INC.,MOLLY WEE PUB,402,8TH AVE,NEW YORK,NY,10001
40.67871976,-73.97911088,306,2051589-DCA,WEPA LA AREPA LLC,MITI MITI,138,5TH AVE,BROOKLYN,NY,11217
40.69331967,-73.96904532,302,1391086-DCA,"419 MYRTLE REST, CORP.",PUTNAM'S,419,MYRTLE AVE,BROOKLYN,NY,11205
40.78277316,-73.97778191,107,2054516-DCA,AMSTERDAM AVE BAGELS INC,BAGELS & CO,172,W 79TH ST,NEW YORK,NY,10024
40.68968019,-73.96936433,302,2018405-DCA,DECO CAFE INC,BROOKLYN PUBLIC HOUSE,247,DEKALB AVE,BROOKLYN,NY,11205
40.88731127,-73.90694452,208,1452060-DCA,"YO-BURGER, INC.",YO-BURGER,3720,RIVERDALE AVE,BRONX,NY,10463
40.74268652,-73.95188797,402,1229988-DCA,MANETTA'S FINE FOOD CORP.,MANETTAS RISTORANTE,1076,JACKSON AVE,LONG IS CITY,NY,11101
40.72773979,-73.98801077,103,1342712-DCA,"CAFE MOCHA, INC.",,116,2ND AVE,NEW YORK,NY,10003
40.76366185,-73.96748203,108,2051498-DCA,SWEETGREEN NEW YORK LLC,SWEETGREEN 61 & LEX,137,E 61ST ST,NEW YORK,NY,10065
40.79300715,-73.97259601,107,1353701-DCA,94 CORNER CAFE CORP.,,2518,BROADWAY,NEW YORK,NY,10025
40.86258994,-73.9070948,207,2087051-DCA,138 WEST FORDHAM RD FOOD CORP,FOKKUS ROOM & CUCINE,138,W FORDHAM RD,BRONX,NY,10468
40.72906612,-73.99835835,102,2083477-DCA,TIMONI INC,,548,LAGUARDIA PL,NEW YORK,NY,10012
40.7229166,-73.98285985,103,2028005-DCA,FONDA AVENUE B LLC,,40,AVENUE B,NEW YORK,NY,10009
40.79631138,-73.9708755,107,1345744-DCA,"WORKHORSE RESTAURANT, INC.",REGIONAL,2607,BROADWAY,NEW YORK,NY,10025
40.70713444,-74.01559597,101,1312044-DCA,OSTERIA CASANO LLC,,28,WEST ST,NEW YORK,NY,10004
40.72495138,-73.99087587,103,2018163-DCA,SECOND STREET RESTAURANT LLC,,29,E 2ND ST,NEW YORK,NY,10003
40.63844747,-73.99789217,312,1361524-DCA,3 IN 1 KITCHEN AMK CORP.,3 IN 1 KITCHEN,4902,FORT HAMILTON PKWY,BROOKLYN,NY,11219
40.77933456,-73.98082331,107,2069713-DCA,D&S DINING GROUP LLC,SALUMERIA ROSI,283,AMSTERDAM AVE,NEW YORK,NY,10023
40.72972987,-73.98933096,103,0911530-DCA,"N.Y. RESTAURANT SUPPLIES, INC.",,8,STUYVESANT ST,NEW YORK,NY,10003
40.70732213,-74.00176736,101,2050152-DCA,PARIS CAFE LLC,PARIS CAFE,119,SOUTH ST,NEW YORK,NY,10038
40.71930559,-74.00644299,101,2002646-DCA,229 BLEECKER LLC,TERRA,222,W BROADWAY,NEW YORK,NY,10013
40.76499499,-73.97530419,105,1189655-DCA,"SBCPS, LLC",,40,CENTRAL PARK S,NEW YORK,NY,10019
40.77632642,-73.95263633,108,0571720-DCA,1616 SECOND AVENUE RESTAURANT INC.,DORRIAN'S RED HAND,1616,2ND AVE,NEW YORK,NY,10028
40.72780625,-74.00282503,102,2005253-DCA,KENNEDY ORGANICS LLC,CHARLIE BIRD,5,KING ST,NEW YORK,NY,10012
40.74020663,-73.98977676,105,1467150-DCA,"921 BROADWAY BAKERY, LLC",MAISON KAYSER BAKERY,921,Broadway,New York,NY,10010
40.76516939,-73.96083893,108,1138459-DCA,MA. VI. DO. REST. INC.,MEDITERRANEO,1260,2ND AVE,NEW YORK,NY,10065
40.7508098,-73.97375027,106,1356304-DCA,OSTERIA LAGUNA L.L.C.,OSTERIA LAGUNA,209,E 42ND ST,NEW YORK,NY,10017
40.75850613,-73.99344132,104,2038099-DCA,CHEZ JOSEPHINE LTD.,,414,W 42ND ST,NEW YORK,NY,10036
40.7910752,-73.97403775,107,0940252-DCA,CARMINE'S BROADWAY FEAST INC.,,2450,BROADWAY,NEW YORK,NY,10024
40.73215942,-74.00338809,102,2035062-DCA,289 BLEECKER RESTAURANT LLC,PAGANI,289,BLEECKER ST,NEW YORK,NY,10014
40.7201072,-73.99709954,102,1072629-DCA,"LUNELLA RISTORANTE, INC.",LUNELLA,173,MULBERRY ST,NEW YORK,NY,10013
40.76371534,-73.98927859,104,1310240-DCA,401 W 50 TAVERN INC.,,401,W 50TH ST,NEW YORK,NY,10019
40.7290102,-73.98453602,103,1103693-DCA,"MANNAGGIA, INC.",,163,1ST AVE,NEW YORK,NY,10003
40.72133373,-74.0098163,101,2032178-DCA,"SWEETGREEN NEW YORK, LLC",SWEETGREEN TRIBECA,413,GREENWICH ST,NEW YORK,NY,10013
40.73062238,-74.00225507,102,1422296-DCA,11 CARMINE TACOS LLC,DOS TOROS,11,CARMINE ST,NEW YORK,NY,10014
40.727603,-73.99363198,102,1458496-DCA,"LAFAYETTE STREET PARTNERS II, LLC",LAFAYETTE,380,LAFAYETTE ST,NEW YORK,NY,10003
40.74244277,-73.95318008,402,2074042-DCA,ANDREAS FOOD CORP.,JACKSON'S,1037,JACKSON AVE,LONG ISLAND CITY,NY,11101
40.76399224,-73.96186483,108,2092160-DCA,E & A BAGEL CORP.,BAGEL EXPRESS II,1228,2ND AVE,NEW YORK,NY,10065
40.68737001,-73.9901887,302,1101185-DCA,MOULINAS LLC,,128,SMITH ST,BROOKLYN,NY,11201
40.75513148,-73.96855459,106,1457312-DCA,"MIDTOWN HOSPITALITY, LLC",,945,2ND AVE,NEW YORK,NY,10022
40.72167944,-73.98875503,103,1352656-DCA,THE MEATBALL SHOP LLC,,84,STANTON ST,NEW YORK,NY,10002
40.78779299,-73.97630687,107,2086160-DCA,217 W85 LLC,ELEA,217,W 85TH ST,NEW YORK,NY,10024
40.80452884,-73.94702471,110,2055193-DCA,BARAWINE LLC,BARAWINE,27,W 120TH ST,NEW YORK,NY,10027
40.72069726,-74.00491712,101,1023699-DCA,P.E.C. GROUP LTD.,PEPOLINO,281,W BROADWAY,NEW YORK,NY,10013
40.76244548,-73.97704868,105,1287126-DCA,"BB AT 55TH & 5TH, LLC",,60,W 55TH ST,NEW YORK,NY,10019
40.62187837,-74.03154113,310,1139335-DCA,THE 8801 CORP.,CEBU,8801,3RD AVE,BROOKLYN,NY,11209
40.75991405,-73.9913259,104,1248301-DCA,PONENTE LLC,NIZZA,628,9TH AVE,NEW YORK,NY,10036
40.73044388,-73.82393183,408,2060235-DCA,"HASHEM MELECH, INC",BRAVO PIZZA,6926,MAIN ST,FLUSHING,NY,11367
40.82241728,-73.94946376,109,2022428-DCA,HAMILTON POINT GRANARY LLC,THE GRANGE BAR & EATERY,1635,AMSTERDAM AVE,NEW YORK,NY,10031
40.73277615,-73.98569338,106,1468690-DCA,243 E. 14TH CAFE INC.,THE WINSLOW,243,E 14TH ST,NEW YORK,NY,10003
40.58185297,-73.82993249,414,1252802-DCA,108 BAGEL CORP.,,108-01,ROCKAWAY BEACH DRIVE,QUEENS,NY,11694
40.73093249,-74.00423233,102,1419407-DCA,RARO INC.,RAFELE,29,7TH AVE S,NEW YORK,NY,10014
40.73301854,-74.00300927,102,2043296-DCA,BOUCHERIE LLC,,99,7TH AVE S,NEW YORK,NY,10014
40.77619434,-73.97943414,107,2044029-DCA,FM70 INC.,BISTRO CASSIS,225,COLUMBUS AVE,NEW YORK,NY,10023
40.75551019,-73.96830535,106,2004688-DCA,ELEVATED 959 LLC,THE PULLMEN KITCHEN,959,2ND AVE,NEW YORK,NY,10022
40.74737355,-74.00425503,104,0885830-DCA,"KEM REST., INC.",DON GIOVANNI,214,10TH AVE,NEW YORK,NY,10011
40.7379969,-73.98765529,105,2037224-DCA,PARK AVE CAKE LLC,L'EXPRESS,249,PARK AVE S,NEW YORK,NY,10003
40.87900636,-73.90422594,208,2021725-DCA,SANGEO CORP,DALE DINER,189,W 231ST ST,BRONX,NY,10463
40.8028941,-73.96416869,107,2073998-DCA,1016 AMSTERDAM AVE LLC,INFAMOUS CHICKEN,1012,AMSTERDAM AVE,NEW YORK,NY,10025
40.6886144,-73.95109404,303,2038124-DCA,REGULARS LLC,CAPTAIN DAN'S GOOD TIME TAVERN,497,GREENE AVE,BROOKLYN,NY,11216
40.62289947,-74.03137951,310,1179946-DCA,PER TAVERN CORP.,KETTLE BLACK,8622,3RD AVE,BROOKLYN,NY,11209
40.732272,-74.00078298,102,2080703-DCA,LLAMA SAN LLC,,359,6TH AVE,NEW YORK,NY,10014
40.74001995,-73.98931488,105,2011959-DCA,OBIKA NY MADISON LLC,OBIKA MOZZARELLA BAR,928,BROADWAY,NEW YORK,NY,10010
40.7305977,-74.00014072,102,2048976-DCA,125 HOSPITALITY LLC,GROOVE,125,MACDOUGAL ST,NEW YORK,NY,10012
40.8029117,-73.96802994,107,2082510-DCA,2791 BROADWAY RESTAURANT GROUP LLC,,2791,BROADWAY,NEW YORK,NY,10025
40.77495779,-73.90867571,401,2080940-DCA,NINO AQ LLC,,3501,DITMARS BLVD,ASTORIA,NY,11105
40.57580402,-73.97991702,313,2035689-DCA,1205 ON SURF CORP,THE RED DOORS BAR & GRILL,1205,SURF AVE,BROOKLYN,NY,11224
40.8871661,-73.90730638,208,2058401-DCA,3713 RIVERDALE REST CORP.,BLACKSTONE BAR & GRILL,3713,RIVERDALE AVE,BRONX,NY,10463
40.74101952,-73.99811266,104,2051459-DCA,132 7TH AVE REST LLC,,132,7TH AVE,NEW YORK,NY,10011
40.73093249,-74.00423233,102,2022429-DCA,INTERNATIONAL HOSPITALITY CONCEPTS LLC,LA LOTERIA,29,7TH AVE S,NEW YORK,NY,10014
40.77304199,-73.90531704,401,1445109-DCA,"VICTORY SWEET SHOP, LTD.",,2169,STEINWAY ST,ASTORIA,NY,11105
40.78476225,-73.95581166,108,2007744-DCA,PAOLA'S RESTAURANT GROUP LLC,PAOLA'S RESTAURANT,1295,MADISON AVE,NEW YORK,NY,10128
40.76261386,-73.98240202,105,1334107-DCA,TREL RESTAURANT INC.,ROSIE O'GRADY'S,800,7TH AVE,NEW YORK,NY,10019
40.78779464,-73.97148229,107,2056569-DCA,B.L.T.G. PIZZA INC.,BELLA LUNA,574,COLUMBUS AVE,NEW YORK,NY,10024
40.76904391,-73.95786185,108,2053447-DCA,ESQUINA NYC 1402 SECOND LLC,LA ESQUINA,1402,2ND AVE,NEW YORK,NY,10021
40.79770616,-73.94860847,111,2038088-DCA,1325 CCPJ CORP,MAXWELL'S,1325,5TH AVE,NEW YORK,NY,10029
40.7547884,-73.96859806,106,2093338-DCA,MIDTOWN KITCHEN LLC,,941,2ND AVE,NEW YORK,NY,10022
40.76793293,-73.96845107,108,1401947-DCA,"768 MAD RESTAURANT, LLC",BAR ITALIA,768,MADISON AVE,NEW YORK,NY,10065
40.70622854,-74.01653352,101,1312041-DCA,CAFE CASANO LLC,,38,WEST ST,NEW YORK,NY,10004
40.72602189,-73.9916911,103,1254785-DCA,"BOWERY F & B, LLC",GEMMA,335,BOWERY,NEW YORK,NY,10003
40.77921299,-73.95051839,108,1310255-DCA,1702 RATHBONES INC.,,1702,2ND AVE,NEW YORK,NY,10128
40.76293688,-73.92127256,401,2017696-DCA,PCPG LLC,,3105,34TH ST,ASTORIA,NY,11106
40.73636153,-74.00601884,102,1347167-DCA,MOZ RESTAURANT INC.,MEME,581,HUDSON ST,NEW YORK,NY,10014
40.74474351,-73.98783449,105,2026474-DCA,TARENTUM LTD,ULIVO,4,W 28TH ST,NEW YORK,NY,10001
40.74926114,-73.94200507,402,2084769-DCA,CRESCENT ST PIZZERIA INC,,4260,CRESCENT ST,LONG ISLAND CITY,NY,11101
40.71786474,-73.99731247,102,1139678-DCA,"THE ORIGINAL VINCENT'S, ESTABLISHED 1904 INC.",,119,MOTT ST,NEW YORK,NY,10013
40.68213607,-73.99583206,306,1316170-DCA,MARCO POLO TAKE OUT LLC,,347,COURT ST,BROOKLYN,NY,11231
40.62549784,-74.02388769,310,2090362-DCA,"MUSSELS & MORE, LTD.",,510,80TH ST,BROOKLYN,NY,11209
40.76869077,-73.91120059,401,1459574-DCA,NOISETTE CAFE INC.,NOISETTE,2421,STEINWAY ST,ASTORIA,NY,11103
40.73483159,-73.98292896,106,1172166-DCA,POSTO INC.,,310,2ND AVE,NEW YORK,NY,10003
40.68627776,-73.9737324,302,2087054-DCA,HEYDAY COCKTAIL AND CAFE LLC,,773,FULTON ST,BROOKLYN,NY,11217
40.76533878,-73.91769221,401,1133602-DCA,Y.N.L.C. CAFE CORP.,,3527,30TH AVE,ASTORIA,NY,11103
40.73292521,-74.00337009,102,1250013-DCA,PANZI ENTERPRISES LLC,Panca,92,7TH AVE S,NEW YORK,NY,10014
40.72621679,-73.99186786,102,2037230-DCA,THE WREN NEW YORK LLC,,344,BOWERY,NEW YORK,NY,10012
40.72169603,-74.00987768,101,2093354-DCA,"DIG INN 412 GREENWICH STREET, LLC",DIG INN,412,GREENWICH ST,NEW YORK,NY,10013
40.78520416,-73.95582942,108,1197788-DCA,"L.L.B., INC.",PASCALOU,1308,MADISON AVE,NEW YORK,NY,10128
40.78576734,-73.97617037,107,2086172-DCA,PIZZA 84 LLC,,483,AMSTERDAM AVE,NEW YORK,NY,10024
40.77411161,-73.90768038,401,1454223-DCA,"G.V.S. BAKERY, INC.",MARTHA'S BAKERY,3621,DITMARS BLVD,ASTORIA,NY,11105
40.743358,-73.99647781,104,2089176-DCA,IVANKA CATERING LLC,,200,7TH AVE,NEW YORK,NY,10011
40.86619197,-73.92763646,112,1224759-DCA,"SOL'S RESTAURANT, INC.",IL SOLE,233,DYCKMAN ST,NEW YORK,NY,10034
40.78887675,-73.97440696,107,2023883-DCA,MERMAID 88 LLC,THE MERMAID INN,570,AMSTERDAM AVE,NEW YORK,NY,10024
40.72258245,-73.98865747,103,2085595-DCA,OYA CORP,,200,ALLEN ST,NEW YORK,NY,10002
40.75949107,-73.91959091,401,2076189-DCA,LAS MARGARITAS SUNSET INC,,3801,BROADWAY,ASTORIA,NY,11103
40.74288284,-73.99068576,105,2092915-DCA,NORIKOH K.O.H. INC,,43,W 24TH ST,NEW YORK,NY,10010
40.74171244,-73.98132132,106,2080299-DCA,380 EAST VENTURES LLC,FACTORY 380,380,3RD AVE,NEW YORK,NY,10016
40.71816712,-73.95758738,301,1259219-DCA,174 BEDFORD AVENUE BAR LLC,CHARLESTON,174,BEDFORD AVE,BROOKLYN,NY,11211
40.74480594,-73.90428172,402,1310982-DCA,SEAN OG ENTERPRISES LLC,SEAN OG'S,6002,WOODSIDE AVE,WOODSIDE,NY,11377
40.78394476,-73.9569605,108,2018722-DCA,EAT MADISON 91 LLC,,26,E 91ST ST,NEW YORK,NY,10128
40.76087173,-73.91582788,401,1311304-DCA,IFETA CORP.,,4115,31ST AVE,ASTORIA,NY,11103
40.77638963,-73.98194344,107,2086429-DCA,ESPRESSO BOOKSTORE & CAFE BROADWAY LLC,SHAKESPEARE & CO.,2020,BROADWAY,NEW YORK,NY,10023
40.71796082,-73.99816021,102,1161434-DCA,"CARMINE RESTAURANT, INC.",IL CORTILE RESTAURANT,125,MULBERRY ST,NEW YORK,NY,10013
40.72068626,-73.99466801,102,2086428-DCA,BL 98 KENMARE NY LLC,Bluestone Lane,19,KENMARE ST,NEW YORK,NY,10012
40.69165142,-73.98600872,302,2070811-DCA,141 LAWRENCE REST LLC,CIRCA BREWING COMPANY,141,LAWRENCE ST,BROOKLYN,NY,11201
40.76258731,-73.98987079,104,2024515-DCA,003 VENUS TACOS LLC,,705,9TH AVE,NEW YORK,NY,10019
40.73492601,-74.00626408,102,2004070-DCA,UPRIGHT HOLDINGS 547 LLC,UPRIGHT BREW HOUSE,547,HUDSON ST,NEW YORK,NY,10014
40.77104755,-73.95087826,108,1422663-DCA,"CLGM, INC.",YEFSI ESTAIATORIO,1481,YORK AVE,NEW YORK,NY,10075
40.76613769,-73.97989211,105,2053443-DCA,910 SEVENTH  AVE REST LLC,,910,7TH AVE,NEW YORK,NY,10019
40.77115407,-73.95639112,108,0895586-DCA,M.B.R.P. REST. INC.,THE STUMBLE INN,1454,2ND AVE,NEW YORK,NY,10021
40.71887007,-73.94526741,301,1314137-DCA,451 GRAHAM AVENUE CORP.,,451,GRAHAM AVE,BROOKLYN,NY,11222
40.70782485,-73.94464167,301,2087607-DCA,D&D CAFE LLC,,128,MESEROLE ST,BROOKLYN,NY,11206
40.62582987,-74.02433811,310,2050843-DCA,BUL INC,ISTANBUL,8002,5TH AVE,BROOKLYN,NY,11209
40.75551018,-73.96828731,106,1349184-DCA,ELEVATED ENTERTAINMENT RESTAURANTS LLC,CORNERSTONE TAVERN,961,2ND AVE,NEW YORK,NY,10022
40.80358836,-73.96369153,109,2007734-DCA,CROISSANT CONSORTIUM LIMITED,THE HUNGARIAN PASTRY SHOP,1030,AMSTERDAM AVE,NEW YORK,NY,10025
40.72904965,-74.00139631,102,2021429-DCA,ONE MELON LLC,,89,MACDOUGAL ST,NEW YORK,NY,10012
40.82138854,-73.95068935,109,2018721-DCA,CLOVE INDIAN RESTAURANT INC.,,1592,AMSTERDAM AVE,NEW YORK,NY,10031
40.71477947,-74.0065652,101,2009822-DCA,59 MACT CORP.,MAXWELL'S,59,READE ST,NEW YORK,NY,10007
40.77648853,-73.91113242,401,1103894-DCA,"31ST STREET PIZZA PALACE, INC.",PIZZA PALACE,2929,DITMARS BLVD,ASTORIA,NY,11105
40.76969718,-73.9579192,108,2056578-DCA,SUSHI GAMA CORP,,1403,2ND AVE,NEW YORK,NY,10021
40.71485253,-73.96063041,301,2047685-DCA,MARTHA'S 263 BEDFORD AVE LLC,MARTHA'S COUNTRY BAKERY,263,BEDFORD AVE,BROOKLYN,NY,11211
40.78009653,-73.94990389,108,2039149-DCA,NOCHE DE MARGARITAS RESTAURANT INC,NOCHE DE MARGARITAS,1726,2ND AVE,NEW YORK,NY,10128
40.75975734,-73.98837681,104,1346488-DCA,"300 WEST 46TH STREET, CORP",BRASSERIE ATHENEE,300,W 46TH ST,NEW YORK,NY,10036
40.72193019,-73.95071244,301,2086167-DCA,BERNIE'S POINT LLC,,836,LORIMER ST,BROOKLYN,NY,11222
40.74537269,-74.00193077,104,2053413-DCA,PASTAIAT INC,PASTAI,186,9TH AVE,NEW YORK,NY,10011
40.72351166,-73.95186213,301,2019774-DCA,LAFITTE LLC,SAUVAGE,905,LORIMER ST,BROOKLYN,NY,11222
40.77487804,-73.95474229,108,2087973-DCA,INTERNATIONAL KITCHEN LLC,,247,E 81ST ST,NEW YORK,NY,10028
40.72642756,-73.98593648,103,2089345-DCA,"MCDONALD'S RESTAURANTS OF NEW YORK, INC.",,102,1ST AVE,NEW YORK,NY,10009
40.76307153,-73.92150704,401,2026147-DCA,MAHAPOCHANAHPHAN INC,ENTHAICETHAIKITCHEN,3320,31ST AVE,ASTORIA,NY,11106
40.72518479,-73.99239473,102,1281748-DCA,"316 BOWERY, LLC",,316,BOWERY,NEW YORK,NY,10012
40.71744011,-73.95855824,301,2037214-DCA,BIBLIO INC,,149,N 6TH ST,BROOKLYN,NY,11249
40.72032404,-73.99698409,102,1150943-DCA,GROTTA AZZURRA INN INC.,,177,MULBERRY ST,NEW YORK,NY,10013
40.71832862,-73.99790408,102,1249523-DCA,AKRAM RESTAURANT MANAGEMENT INC.,,129,MULBERRY ST,NEW YORK,NY,10013
40.78552036,-73.97638351,107,0883095-DCA,83/AMSTERDAM RESTAURANT CORP.,HI LIFE BAR & GRILL,477,AMSTERDAM AVE,NEW YORK,NY,10024
40.80809602,-73.9449773,110,1385339-DCA,RED ROOSTER HARLEM LLC,RED ROOSTER HARLEM,310,MALCOLM X BLVD,NEW YORK,NY,10027
40.78639864,-73.97622431,107,1207810-DCA,"PQ WEST 84TH, INC.",LE PAIN QUOTIDIEN,494,AMSTERDAM AVE,NEW YORK,NY,10024
40.78430383,-73.97353124,107,1382144-DCA,IL RIFUGIO INC.,TARALLUCCI E VINO,475,COLUMBUS AVE,NEW YORK,NY,10024
40.7121807,-73.95732066,301,1417866-DCA,ANFIELD ROAD INC.,BANTER,132,HAVEMEYER ST,BROOKLYN,NY,11211
40.67066268,-73.9914817,306,2008446-DCA,TABLE 87 GOWANUS NYC LLC,,473,3RD AVE,BROOKLYN,NY,11215
40.77916931,-73.95105642,108,1214833-DCA,"L.E. GLOBE, LLC",CAFE D' ALSACE,1695,2ND AVE,NEW YORK,NY,10128
40.76158191,-73.96053781,108,2093005-DCA,LAGADA CORP.,,1133,1ST AVE,NEW YORK,NY,10065
40.72019464,-74.01000733,101,2049154-DCA,AEMAL LLC,YVES,385,GREENWICH ST,NEW YORK,NY,10013
40.85575986,-73.88720431,206,2086164-DCA,609 EDIBLES INC.,TINOS DELICATESSEN,2410,ARTHUR AVE,BRONX,NY,10458
40.60825348,-73.96045197,315,1145512-DCA,COFFEE PLACE CORP.,SUNFLOWER CAFE,1223,QUENTIN RD,BROOKLYN,NY,11229
40.71650974,-73.95884019,301,1120483-DCA,1 & 3 ON 5TH CORP.,FABIANE'S CAFE & PASTRY,142,N 5TH ST,BROOKLYN,NY,11211
40.76113289,-73.99419911,104,1071297-DCA,"10TH AVENUE GROUP, INC.",44&X-HELLS KITCHEN,622,10TH AVE,NEW YORK,NY,10036
40.70806597,-73.92050778,304,2077794-DCA,SOUTH 4TH RESTAURANT COMPANY LLC,,321,STARR ST,BROOKLYN,NY,11237
40.77210898,-73.95570092,108,2086173-DCA,RBO ON 2ND AVE CORP,CHEECH & PEPPE'S,1484,2ND AVE,NEW YORK,NY,10075
40.80342918,-73.95585345,110,2071748-DCA,"FAT LEMONS, LLC",CAFEINE,2124,FREDERICK DOUGLASS BLVD,NEW YORK,NY,10026
40.72121541,-73.98719663,103,2011961-DCA,"UBER CAFFE, LLC",,116,STANTON ST,NEW YORK,NY,10002
40.72691094,-73.98866034,103,2034353-DCA,LOCAL 92 INC,LOCAL 92,92,2ND AVE,NEW YORK,NY,10003
40.72508599,-73.99249936,102,2075392-DCA,MAMACHA LLC,MAMACHA,312,BOWERY,NEW YORK,NY,10012
40.77741576,-73.95185927,108,1142288-DCA,OLD HEIDELBERG CORP.,,1648,2ND AVE,NEW YORK,NY,10028
40.74340472,-73.99912306,104,2053445-DCA,BE BAMBA GROUP LLC,LAMANO,265,W 20TH ST,NEW YORK,NY,10011
40.76371931,-73.92153515,401,2010802-DCA,"ASTORIA BRICK, LLC",,3095,33RD ST,ASTORIA,NY,11102
40.68879717,-73.98883269,302,1390391-DCA,HERSHA HOSPITALITY MANAGEMENT L.P.,,85,SMITH ST,BROOKLYN,NY,11201
40.77220138,-73.96074814,108,1388513-DCA,MJAJ FOOD CORP.,EATS,1055,LEXINGTON AVE,NEW YORK,NY,10021
40.7704417,-73.95986466,108,0970343-DCA,C.S.L.L. REST. CORP.,EJ'S LUNCHEONETTE,1271,3RD AVE,NEW YORK,NY,10021
40.76432456,-73.98808721,104,2018723-DCA,MORNINGSIDE TERRACE CORP,K. RICO,772,9TH AVE,NEW YORK,NY,10019
40.72924453,-74.00096335,102,2022457-DCA,E2 185 BLEECKER LLC,,185,BLEECKER ST,NEW YORK,NY,10012
40.88621356,-73.90714496,208,2054437-DCA,TRUFFA PIZZERIA & WINE ROOM CORP.,COCINA CHENTE MEXICAN CUISINE,3535,RIVERDALE AVE,BRONX,NY,10463
40.68254141,-73.96146073,302,1379033-DCA,"FULTONGRAND BAR, INC.",,1011,FULTON ST,BROOKLYN,NY,11238
40.78928263,-73.94870887,111,2021903-DCA,SPAHA PIZZA LLC,LEXINGTON PIZZA PARLOUR,1590,LEXINGTON AVE,NEW YORK,NY,10029
40.77398569,-73.90809214,401,2057395-DCA,TUFINO PIZZERIA NAPOLETANA INC,,3608,DITMARS BLVD,ASTORIA,NY,11105
40.73896371,-74.00009021,104,1468273-DCA,DE ARMAS ENTERPRISES CORP.,COPPELIA,207,W 14TH ST,NEW YORK,NY,10011
40.72469096,-74.00257957,102,1101999-DCA,RDK RESTAURANT CORP.,,180,SPRING ST,NEW YORK,NY,10012
40.62497748,-74.03063119,310,2085106-DCA,TOXOTIS LLC,,8402,3RD AVE,BROOKLYN,NY,11209
40.76362368,-73.98087116,105,2081203-DCA,FACES & NAMES INC,,161,W 54TH ST,NEW YORK,NY,10019
40.71731535,-74.01041814,101,2063825-DCA,THANA REST INC.,L'ANGOLO RISTORANTE,190A,DUANE ST,NEW YORK,NY,10013
40.75932389,-73.99086033,104,2052742-DCA,"R & R WESTSIDE, LLC",THE BRAZEN TAVERN,356,W 44TH ST,NEW YORK,NY,10036
40.77708394,-73.95257803,108,2020704-DCA,1629 2ND RESTAURANT LLC,ETHYL'S,1629,2ND AVE,NEW YORK,NY,10028
40.77643856,-73.97909828,107,2016541-DCA,PARM UPPER WEST LLC,,235,COLUMBUS AVENUE,NEW YORK,NY,10023
40.74557667,-73.90696565,402,1252836-DCA,RIZ BAGEL INC.,,5720,WOODSIDE AVE,WOODSIDE,NY,11377
40.70527409,-73.93270909,301,2011786-DCA,"THE GUILD OF LIQUIDUS INTENT, LLC",,12,GRATTAN ST,BROOKLYN,NY,11206
40.7761818,-73.96239583,108,1171759-DCA,K.K. & D. OF 79TH ST. REST. CORP.,NECTAR CAFE,1022,MADISON AVE,NEW YORK,NY,10075
40.61785792,-73.93197956,318,1352645-DCA,KARABINIS DINER CORP,OASIS DINER,2132,FLATBUSH AVE,BROOKLYN,NY,11234
40.75695636,-73.96721459,106,1215467-DCA,"60 SWEET THING, INC.",REDEMPTION,1003,2ND AVE,NEW YORK,NY,10022
40.6677638,-73.98724654,306,1420950-DCA,SNOWDAY LLC,THE SKYLARK,477,5TH AVE,BROOKLYN,NY,11215
40.77236966,-73.95552023,108,1410849-DCA,LUMA REST. INC.,LUSARDI'S RESTAURANT,1494,2ND AVE,NEW YORK,NY,10075
40.79246396,-73.97371579,107,0916146-DCA,"HUSSIEN ENVIRONMENT, INC.",CLEOPATRAS NEEDLE,2483,BROADWAY,NEW YORK,NY,10025
40.71552654,-73.94440441,301,1346116-DCA,"TRES DE MEXICO, LLC",MESA COYOACAN,372,GRAHAM AVE,BROOKLYN,NY,11211
40.71954993,-74.00539323,101,,ELEVEN FOOD AND BEVERAGE INC.,,11,6TH AVE,NEW YORK,NY,10013
40.71048588,-73.95394557,301,2034408-DCA,DOUBLE DEEP LLC,BLACK FLAMINGO,168,BORINQUEN PL,BROOKLYN,NY,11211
40.81333564,-73.94485737,110,2055688-DCA,RENAISSANCE HARLEM CORP,RENAISSANCE HARLEM,2245,ADAM CLAYTON POWELL JR BLVD,NEW YORK,NY,10027
40.74529583,-74.002187,104,2092916-DCA,QANOON CORP.,,180,9TH AVE,NEW YORK,NY,10011
40.78437881,-73.97768749,107,1096363-DCA,"THIRD AVE. REST., INC.",JAKE'S DILEMMA,430,AMSTERDAM AVE,NEW YORK,NY,10024
40.68692864,-73.97543766,302,1245257-DCA,"THE SMOKE JOINT, LLC",THE SMOKE JOINT,87,S ELLIOTT PL,BROOKLYN,NY,11217
40.71883091,-73.99772008,102,1165364-DCA,"BUFFANNA, INC.",IL PICOOLO BUFALO,141,MULBERRY ST,NEW YORK,NY,10013
40.67981911,-74.01023922,306,2035683-DCA,RHLP 284 LLC,RED HOOK LOBSTER POUND,284,VAN BRUNT ST,BROOKLYN,NY,11231
40.7405912,-74.0059254,102,2078572-DCA,"DEAN & DELUCA SMALL FORMAT LQ, LLC",,29-35,9TH AVE,NEW YORK,NY,10014
40.7814149,-73.97984778,107,1413323-DCA,AMSTERDAM ALE HOUSE INC,,340,AMSTERDAM AVE,NEW YORK,NY,10024
40.66517848,-73.98987476,307,1385722-DCA,568 5TH BROOKLYN LLC,BLACK HOUSE PUB,568,5TH AVE,BROOKLYN,NY,11215
40.73959475,-74.00765744,102,1469750-DCA,BUBBYS MP LLC,BUBBYS HIGHLINE,71,GANSEVOORT ST,NEW YORK,NY,10014
40.76975368,-73.98836062,104,1299629-DCA,GREEK KITCHEN INC.,THE GREEK KITCHEN,885,10TH AVE,NEW YORK,NY,10019
40.72561022,-74.00778211,102,2023067-DCA,"ADORO LEI, LLC",ADORO LEI,287,HUDSON ST,NEW YORK,NY,10013
40.72372725,-73.86907882,405,1305734-DCA,POLLOS MARIO WOODHAVEN CORP.,,6320,WOODHAVEN BLVD,REGO PARK,NY,11374
40.78456727,-73.97330725,107,2070370-DCA,MICHEL GE INC,BELLINI,483,COLUMBUS AVE,NEW YORK,NY,10024
40.73602957,-74.0006459,102,2072108-DCA,TAPESTRY MANAGEMENT LLC,RAHI,60,GREENWICH AVE,NEW YORK,NY,10011
40.72006601,-73.99620848,102,2078292-DCA,ROOT NOLITA LLC,ROOT NOLITA,371,BROOME ST,NEW YORK,NY,10013
40.72707167,-73.97984978,103,2009643-DCA,YARDBIRD LLC,MAIDEN LANE,162,AVENUE B,NEW YORK,NY,10009
40.71456526,-73.99156627,103,1458966-DCA,"PLAN A GROUP, LLC",FORGTMENOT,138,DIVISION ST,NEW YORK,NY,10002
40.73535711,-74.00053404,102,1160623-DCA,"WOGIE'S, INC.",WOGIES,39,GREENWICH AVE,NEW YORK,NY,10014
40.74556207,-74.0021834,104,2027036-DCA,FONDA OF CHELSEA LLC,FONDA CHELSEA,189,9TH AVE,NEW YORK,NY,10011
40.76747226,-73.98386283,104,2086165-DCA,ABA TURKISH RESTAURANT LLC,,325,W 57TH ST,NEW YORK,NY,10019
40.74637311,-73.91844827,402,1424004-DCA,COOLJAG CORP.,THE SKILLMAN,4520,SKILLMAN AVE,SUNNYSIDE,NY,11104
40.75942147,-73.96839012,106,1310960-DCA,BELCANTATA REST. INC.,PIG & WHISTLE ON 3RD,922,3RD AVE,NEW YORK,NY,10022
40.69748033,-73.9675684,302,2002605-DCA,IL PORTO BRICK OVEN RISTORANTE LLC,IL PORTO,37,WASHINGTON AVE,BROOKLYN,NY,11205
40.71415686,-73.96528774,301,2052744-DCA,"SUNDAY IN BROOKLYN, LLC",,348,WYTHE AVE,BROOKLYN,NY,11249
40.7746704,-73.95724812,108,0882869-DCA,"LIRA OF NEW YORK, INC.",LUKE'S BAR & GRILL,1394,3RD AVE,NEW YORK,NY,10075
40.69871157,-73.99253839,302,2084368-DCA,BRIDGE 72 LLC,HENRY'S END,72,HENRY ST,BROOKLYN,NY,11201
40.70766718,-74.01355461,101,1422914-DCA,TAJIN RESTAURANT CORP.,,83-85,GREENWICH ST,NEW YORK,NY,10006
40.72963358,-73.98722387,103,2009611-DCA,MSB RESTAURANTS LLC,THE COPPER STILL,151,2ND AVE,NEW YORK,NY,10003
40.69759901,-73.93150512,304,2035049-DCA,MYRTLE VILLAGE LLC,BIRDY'S,1215,MYRTLE AVE,BROOKLYN,NY,11221
40.77471468,-73.91376684,401,2007743-DCA,NYC BAGELS & COFFEE SHOP INC,NYC BAGELS & COFFEE  HOUSE,2908,23RD AVE,ASTORIA,NY,11105
40.78412326,-73.95037391,108,2075352-DCA,EASTSIDE BARKING DOG INC,,1678,3RD AVE,NEW YORK,NY,10128
40.77067954,-73.95721819,108,2030898-DCA,ZEP LLC,ZUCCHERO E POMODORI,1435,2ND AVE,NEW YORK,NY,10021
40.80895509,-73.94491518,110,2035682-DCA,SERF TWO INC,BABALUCCI'S,331,LENOX AVE,NEW YORK,NY,10027
40.73798884,-73.9894379,105,0960499-DCA,"A.B.C. HOME FURNISHINGS, INC.",ABC COCINA,38,E 19TH ST,NEW YORK,NY,10003
40.73779992,-74.00194859,102,2071250-DCA,"UNCLE BIAGIO, LLC",DON ANGIE,103,GREENWICH AVE,NEW YORK,NY,10014
40.80438428,-73.9556975,110,2009869-DCA,SIVAN DESIGN LLC,SILVANA,300,W 116TH ST,NEW YORK,NY,10026
40.76533291,-73.95755374,108,1251803-DCA,PQ FIRST INC,LE PAIN QUOTIDIEN,1270,1ST AVE,NEW YORK,NY,10065
40.78703577,-73.97798994,107,2057394-DCA,THE PICKLE PEOPLE LLC,MAISON PICKLE,2309,BROADWAY,NEW YORK,NY,10024
40.76133889,-73.9245449,401,2054430-DCA,NEWTOWN BAR LLC,,3202,BROADWAY,ASTORIA,NY,11106
40.77441374,-73.90793991,401,2087608-DCA,"ITPMP, INC",,3603,DITMARS BLVD,ASTORIA,NY,11105
40.72682884,-73.99144927,103,1192051-DCA,EAST PUB INC,PHEBE'S,359,BOWERY,NEW YORK,NY,10003
40.77755281,-73.97847329,107,1072082-DCA,CLASSIC FOOD INC,,267,COLUMBUS AVE,NEW YORK,NY,10023
40.72177043,-73.99436849,102,1260966-DCA,CANTALOUPE LLC,LOVELY DAY,196,ELIZABETH ST,NEW YORK,NY,10012
40.86661221,-73.92810963,112,1208262-DCA,VIDA CAFE INC,MAMAJUANA CAFE,247,DYCKMAN ST,NEW YORK,NY,10034
40.78253727,-73.9785764,107,2089506-DCA,TACOS 'LOS VAQUEROS' LLC,TACOMBI,377,AMSTERDAM AVE,NEW YORK,NY,10024
40.77077832,-73.95714592,108,2053891-DCA,TUMMA KHAKUEN INC,THEP THAI RESTAURANT,1439,2ND AVE,NEW YORK,NY,10021
40.7320085,-74.00156234,102,1221449-DCA,PEPE'S REST. GROUP LLC,LAS RAMBLAS,170,W 4TH ST,NEW YORK,NY,10014
40.71984879,-74.01005057,101,1319263-DCA,GREENWICH HOTEL RESTAURANT LLC,LOCANDA VERDE,377,GREENWICH ST,NEW YORK,NY,10013
40.72065698,-73.84561036,406,2015728-DCA,ALIAGED DINING INC,AGED,10702,70TH RD,FOREST HILLS,NY,11375
40.7620977,-73.9599094,108,2038892-DCA,"MNY HOLDINGS ASSOCIATES, LLC",BAKER STREET,1152,1ST AVE,NEW YORK,NY,10065
40.67471993,-73.9756152,306,1456771-DCA,"SIMMONS PROVISIONS OF NY, LLC",KIWIANA,847A,UNION ST,BROOKLYN,NY,11215
40.78207377,-73.98063476,107,2046897-DCA,NY BROADWAY HOTEL OWNER LLC,ARTHOUSE HOTEL NEW YORK CITY,2178,BROADWAY,NEW YORK,NY,10024
40.72109805,-73.99679646,102,2032459-DCA,Elmer Kennedy LLC,PASQUALE JONES,86,KENMARE ST,NEW YORK,NY,10012
40.72763281,-73.98863497,103,1466561-DCA,"CMH BBQ HOLDINGS, LLC",,103,2ND AVE,NEW YORK,NY,10003
40.74088777,-73.99824619,104,1251800-DCA,"PQ CHELSEA, INC.",LE PAIN QUOTIDIEN,124,7TH AVE,NEW YORK,NY,10011
40.82435474,-73.94875049,109,2085586-DCA,"ARGOT ENTERPRISE, INC",,142,HAMILTON PL,NEW YORK,NY,10031
40.75861371,-73.965575,106,2067782-DCA,SHADMOOR LLC,THE SHADMOOR,1066,2ND AVE,NEW YORK,NY,10022
40.80064997,-73.96777458,107,1222176-DCA,"SILVER MOON BAKERY, INC.",,2740,BROADWAY,NEW YORK,NY,10025
40.61658109,-74.03089028,310,2037225-DCA,ROCCO'S BROOKLYN BAKERY INC,PASTICCERIA ROCCO,9402,4TH AVE,BROOKLYN,NY,11209
40.76547122,-73.96962909,108,2079372-DCA,27 EAST RESTAURANT HOLDINGS LLC,FLEMING BY LE BILBOQUET,27,E 62ND ST,NEW YORK,NY,10065
40.69993275,-73.91981061,304,2062941-DCA,R G BAR G LLC,DARLINGS,242,HIMROD ST,BROOKLYN,NY,11237
40.72085887,-74.01003629,101,2038116-DCA,GST399 INC,GREENWICH STREET TAVERN,399,GREENWICH ST,NEW YORK,NY,10013
40.71071898,-73.95345486,301,2009868-DCA,TK FOOD CONCEPTS LLC,SALT & CHARCOAL,171,GRAND STREET EXT,BROOKLYN,NY,11211
40.77146523,-73.95912032,108,2045882-DCA,75TH & 3RD CORP.,BISTRO LE STEAK,1309,3RD AVE,NEW YORK,NY,10021
40.76029,-73.97308956,105,2050846-DCA,KOURELI RESTAURANT GROUP INC,NERAI,55,E 54TH ST,NEW YORK,NY,10022
40.77238247,-73.96057113,108,1022739-DCA,TERMINUS RESTAURANT ASSOCIATES LLC,ORSAY RESTAURANT,1057,LEXINGTON AVE,NEW YORK,NY,10021
40.76453064,-73.91606152,401,2010360-DCA,AK RESTAURANT GROUP LLC,BLEND ASTORIA,3717,30TH AVE,ASTORIA,NY,11103
40.83208669,-73.8508987,209,2039486-DCA,GRAND SABROSURA INC,SABROSURA,1200,CASTLE HILL AVE,BRONX,NY,10462
40.74171369,-73.99216188,105,1456597-DCA,FOYER LLC,,50,W 22ND ST,NEW YORK,NY,10010
40.80548002,-73.96544601,109,2022715-DCA,DIG INN 2884 BROADWAY LLC,DIG INN SEASONAL MARKET,2884,BROADWAY,NEW YORK,NY,10025
40.74124267,-73.9216771,402,2082440-DCA,SENSO UNICO RESTAURANT CORP,,4304,47TH AVE,SUNNYSIDE,NY,11104
40.72332679,-73.99648969,102,2091266-DCA,LPB4 LLC,LA PECORA BIANCA,265,LAFAYETTE ST,NEW YORK,NY,10012
40.73644325,-73.98664522,106,0293907-DCA,"DMF GRAMERCY ENTERPRISES, INC.",PETE'S TAVERN S/C #111,129,E 18TH ST,NEW YORK,NY,10003
40.77480466,-73.90940163,401,2039429-DCA,DOUGH JOE LLC,HINOMARU RAMEN,3318,DITMARS BLVD,ASTORIA,NY,11105
40.75807285,-73.9168746,401,1221132-DCA,SYMPATOCH CAFE INC.,DANDANA CAFE,4221,BROADWAY,ASTORIA,NY,11103
40.74776593,-73.99325832,105,1151949-DCA,CALSHEA REST. CORP.,THE TRIPLE CROWN,330,7TH AVE,NEW YORK,NY,10001
40.77464038,-73.95080701,108,2087972-DCA,"HARLEM SAM, INC.",AOC EAST,1590,1ST AVE,NEW YORK,NY,10028
40.75902382,-73.91868184,401,2035429-DCA,NYCBCH LLC,,4005,BROADWAY,QUEENS,NY,11103
40.70942919,-74.0146082,101,1465832-DCA,"BILL'S DTM NY, LLC",BILL'S BAR AND BURGER DOWNTOWN,85,WEST ST,NEW YORK,NY,10006
40.71980243,-74.00564938,101,1110383-DCA,"ANOTHEROOM, INC.",,249,W BROADWAY,NEW YORK,NY,10013
40.75562855,-73.92263474,401,2049837-DCA,"Astoria Apple, LLC",Applebees,3801,35TH AVE,ASTORIA,NY,11101
40.69065306,-73.99496249,302,2036874-DCA,BROOKLYN THIN CRUST INC,BRADO,155,ATLANTIC AVE,BROOKLYN,NY,11201
40.77495388,-73.98038048,107,2055693-DCA,"VLC UPPER WEST, LLC",VIVE LA CREPE,189,COLUMBUS AVE,NEW YORK,NY,10023
40.79300704,-73.97211207,107,2024390-DCA,LEVANTINO LLC,VINO LEVANTINO,210,W 94TH ST,NEW YORK,NY,10025
40.72618643,-73.98977169,103,1344043-DCA,A & D WINE CORP.,BAR VERDE,65,2ND AVE,NEW YORK,NY,10003
40.72497914,-74.00321816,102,1463501-DCA,R&G SPRING LLC,PICCOLA CUCINA,196,SPRING ST,NEW YORK,NY,10012
40.7183866,-73.95046254,301,2081572-DCA,SAMPA RESTAURANT LLC,BECO,45,RICHARDSON ST,BROOKLYN,NY,11211
40.75610829,-73.9674027,106,0697987-DCA,MIMI'S RESTAURANT CORP.,E/S/C #255,984,2ND AVE,NEW YORK,NY,10022
40.78469166,-73.977431,107,2042353-DCA,"BENVA BAKERY, LLC",,440,AMSTERDAM AVE,NEW YORK,NY,10024
40.74430254,-73.9132721,402,2033617-DCA,CAFE 52  RESTAURANT CORP,,5129,43RD AVE,WOODSIDE,NY,11377
40.75457328,-73.91685009,401,2056579-DCA,UNITED MINERS SOCCER CLUB INC,UNITED MINERS SOCCER,3401,45TH ST,LONG ISLAND CITY,NY,11101
40.88501081,-73.90988433,208,2087609-DCA,MOSS CAFE LLC,,3260,JOHNSON AVE,BRONX,NY,10463
40.73965249,-74.00593975,102,1161856-DCA,"JEC II, LLC",BAGATELLE,1,LITTLE WEST 12TH ST,NEW YORK,NY,10014
40.77683653,-73.97901873,107,2072102-DCA,JOE & THE JUICE NEW YORK LLC,JOE & THE JUICE,247,COLUMBUS AVE,NEW YORK,NY,10023
40.72998331,-73.95762316,301,2038100-DCA,CLOUET LLC,,113,FRANKLIN ST,BROOKLYN,NY,11222
40.71960206,-74.00576481,101,2082896-DCA,WHITE WALKER LLC,,241,W BROADWAY,NEW YORK,NY,10013
40.77099766,-73.95649231,108,2028248-DCA,BILTMORE GARAGE RESTAURANT ASSOCIATES LLC,MEL'S BURGER BAR,1450,2ND AVE,NEW YORK,NY,10021
40.76596584,-73.98741907,104,1457455-DCA,"MEDI WINEBAR, LLC",MEDI WINEBAR LLC,811,9TH AVE,NEW YORK,NY,10019
40.73702027,-74.00595756,102,0918358-DCA,RESTAURANT 597 INC.,BUS STOP,597,HUDSON ST,NEW YORK,NY,10014
40.72680665,-73.98877221,103,1025932-DCA,"KITCHEN TABLE, INC.",FRANK RESTAURANT,88,2ND AVE,NEW YORK,NY,10003
40.68575896,-73.97359199,302,1345353-DCA,HL KOELN CORP.,DER SCHWARZE KOELNER,710,FULTON ST,BROOKLYN,NY,11217
40.88698464,-73.90693051,208,1454468-DCA,"TIN MARIN BAR & LOUNGE, INC.",TIN MARIN RESTAURANT & LOUNGE,3708,RIVERDALE AVE,BRONX,NY,10463
40.73821701,-74.00535144,102,1343516-DCA,CERELI INC.,MOLE,57,JANE ST,NEW YORK,NY,10014
40.70269769,-73.91729348,304,2053456-DCA,Unclegrandpa LLC,OPS,346,HIMROD ST,BROOKLYN,NY,11237
40.65257787,-73.97593323,307,2009866-DCA,CEDAR DRIVE LLC,MOHAWK TAVERN,1241,PROSPECT AVE,BROOKLYN,NY,11218
40.70410781,-73.93313225,301,2081250-DCA,"Chez Sam, LLC",Benelux,25,BOGART ST,BROOKLYN,NY,11206
40.63079166,-74.02781654,310,1360215-DCA,TANOREEN CATERERS INC.,TANOREEN,7523,3RD AVE,BROOKLYN,NY,11209
40.8001644,-73.96863806,107,1187714-DCA,"BROADWAY 104, LLC",CAFE DU SOLEIL,245,W 104TH ST,NEW YORK,NY,10025
40.72852541,-73.9994155,102,2056566-DCA,151 BLEECKER LLC,RED LION,151,BLEECKER ST,NEW YORK,NY,10012
40.77902387,-73.97786621,107,1339241-DCA,LENWICH 74TH LLC,LENWICH,302,COLUMBUS AVE,NEW YORK,NY,10023
40.84415132,-73.8302197,210,1198574-DCA,VANETT INC.,JIMMY RYAN'S,3005,MIDDLETOWN RD,BRONX,NY,10461
40.76853196,-73.98555574,104,2033303-DCA,VEGG 58TH LLC,MASSERIA DEI VINI,889,9TH AVE,NEW YORK,NY,10019
40.72725459,-73.9997258,102,2074710-DCA,LOW OVERRUN LLC,Morgenstern's Finest Ice Cream,490-494,LAGUARDIA PL,NEW YORK,NY,10012
40.7764007,-73.95306233,108,2086720-DCA,SIRICHAI INC,,1611,2ND AVE,NEW YORK,NY,10028
40.72707042,-73.99205897,102,1381793-DCA,GARDEN CAFE ASSOCIATES LLC,B BAR & GRILL,40,E 4TH ST,NEW YORK,NY,10003
40.770128,-73.95763011,108,1381393-DCA,ALA TURK INC,,1417,2ND AVE,NEW YORK,NY,10021
40.77052586,-73.92092783,401,2083447-DCA,26-05 HOSPITALITY LLC,,2605,28TH ST,ASTORIA,NY,11102
40.72283708,-73.98337577,103,2023401-DCA,ROOT & BONE LLC,ROOT & BONE,200,E 3RD ST,NEW YORK,NY,10009
40.78322334,-73.97800564,107,2041109-DCA,MOSHGAB CORP.,SABA'S PIZZA,403,AMSTERDAM AVE,NEW YORK,NY,10024
40.71750037,-73.95820467,301,2006633-DCA,194 BEDFORD AVE REST CORP.,DZIUPLA,194,BEDFORD AVE,BROOKLYN,NY,11249
40.75961491,-73.92006724,401,2001325-DCA,"OLIVER'S ASTORIA, LLC",OLIVER'S GASTROPUB,3719,BROADWAY,ASTORIA,NY,11103
40.77092407,-73.95096139,108,2002656-DCA,"SALTOTO, INC.",SALVO'S,1477,YORK AVE,NEW YORK,NY,10075
40.79144018,-73.97375953,107,2086171-DCA,"JOE & THE JUICE NEW YORK, LLC",,2460,BROADWAY,NEW YORK,NY,10025
40.7210892,-73.8465762,406,1385297-DCA,"PLOUTARXOS, INC.",AGORA TAVERNA,7009,AUSTIN ST,FOREST HILLS,NY,11375
40.74253837,-73.85416655,404,2023200-DCA,ASADERO LA FOGATA CORP,ASADERO LA FOGATA,10840,CORONA AVE,CORONA,NY,11368
40.71317394,-73.95636052,301,2048673-DCA,VABEH FIRST LLC,HAVE & MEYER,103,HAVEMEYER ST,BROOKLYN,NY,11211
40.72491854,-74.00773152,102,2079555-DCA,WHITMANS 261 HUDSON LLC,,261,HUDSON ST,NEW YORK,NY,10013
40.77115407,-73.95639112,108,0955674-DCA,M.B.R.P. REST. INC.,THE STUMBLE INN,1454,2ND AVE,NEW YORK,NY,10021
40.68925747,-73.96925995,302,2011216-DCA,REGULAR WOW LLC,THE GREAT GEORGIANA,248,DEKALB AVE,BROOKLYN,NY,11205
40.69205124,-73.92610178,304,2083355-DCA,The Buren LLC,,1223,BROADWAY,BROOKLYN,NY,11221
40.80077839,-73.96574101,107,2075394-DCA,SEINFELD SQUARED LLC,,938,AMSTERDAM AVE,NEW YORK,NY,10025
40.86661223,-73.92814579,112,2009046-DCA,VIDA ENTERPRISE INC.,PAT'E PALO,251,DYCKMAN ST,NEW YORK,NY,10034
40.72625982,-73.98361304,103,1168148-DCA,YUCA BAR & RESTAURANT INC.,,111,AVENUE A,NEW YORK,NY,10009
40.75796067,-73.91736203,401,1427814-DCA,42-02 TAVERN INC.,DOYLE'S CORNER,4202,BROADWAY,ASTORIA,NY,11103
40.76088566,-73.99105143,104,1101272-DCA,659 REST. INC.,MERCURY BAR,659,9TH AVE,NEW YORK,NY,10036
40.72712498,-73.98815159,103,2063601-DCA,Bytelogics Inc,zerza,304,E 6TH ST,NEW YORK,NY,10003
40.76380542,-73.97064785,108,1466932-DCA,"LE BILBOQUET NY, LLC",LE BILBOQUET,20,E 60TH ST,NEW YORK,NY,10022
40.77503274,-73.95046372,108,2041674-DCA,BALTIMORE RESTAURANT INC,ENGINAR,1606,1ST AVE,NEW YORK,NY,10028
40.7260324,-73.98666895,103,2078117-DCA,ESQEV LLC,EMMY SQUARED,83,1ST AVE,NEW YORK,NY,10003
40.74345104,-73.99111873,105,1385967-DCA,"TAPPO, INC.",,49,W 24TH ST,NEW YORK,NY,10010
40.7383725,-73.98416577,106,0852766-DCA,LAMARCA INC.,LAMARCA CHEESE SHOP,161,E 22ND ST,NEW YORK,NY,10010
40.76122599,-73.99081314,104,1249100-DCA,P & A 665 RESTAURANT CORP.,GALAXY DINER,665,9TH AVE,NEW YORK,NY,10036
40.79539707,-73.96965156,107,2074690-DCA,ROJITA MANAGEMENT LLC,BORU BORU,774,AMSTERDAM AVE,NEW YORK,NY,10025
40.76476416,-73.91635363,401,2065860-DCA,"GRAND ASTORIA, INC",THE GRAND,3701,30TH AVE,ASTORIA,NY,11103
40.75886152,-73.91816586,401,2019413-DCA,SIBECA CORPORATION,POLLOS MARIO,4019,BROADWAY,ASTORIA,NY,11103
40.76464126,-73.91720573,401,2088546-DCA,"ASTORIA RESTAURANT GROUP, INC",,3610,30TH AVE,ASTORIA,NY,11103
40.75518148,-73.97083212,106,0978960-DCA,"ST. JAMES ASSOCIATES, L.P.",SMITH & WOLLENSKY,201,E 49TH ST,NEW YORK,NY,10017
40.72066438,-73.9967099,102,1382366-DCA,SUD123 INCORPORATED,CIAO,178,MULBERRY ST,NEW YORK,NY,10012
40.76625478,-73.92054663,401,1418049-DCA,MZ RESTAURANT GROUP LLC,BURGER CLUB,3202,30TH AVE,ASTORIA,NY,11102
40.79814985,-73.96893517,107,1472635-DCA,MEXICAN FESTIVAL NYC LLC,MEXICAN FESTIVAL,2672,BROADWAY,NEW YORK,NY,10025
40.76218826,-73.95985881,108,2028008-DCA,"GOVAN RD, INC",THE SPOTTED DOG,1154,1ST AVE,NEW YORK,NY,10065
40.73771476,-74.00446731,102,1277859-DCA,"C & O COFFEE SHOP, INC.",La Bonbonniere Restaurant,28,8TH AVE,NEW YORK,NY,10014
40.78399726,-73.97748179,107,2028372-DCA,TAIKAI INC,MOMOYA UPPER WEST,427,AMSTERDAM AVE,NEW YORK,NY,10024
40.76589948,-73.91879258,401,1238509-DCA,MANGIA RESTAURANT CORP.,OVELIA RESTAURANT,3401,30TH AVE,ASTORIA,NY,11103
40.677565,-73.98405403,306,1455729-DCA,"DINOSAUR RESTAURANTS, LLC",DINOSAUR BAR-B-QUE,604,UNION ST,BROOKLYN,NY,11215
40.72369401,-73.98792131,103,2070372-DCA,SPIEGEL INC,SPIEGEL,26,1ST AVE,NEW YORK,NY,10009
40.77538642,-73.95629448,108,0890521-DCA,200 EAST 81ST RESTAURANT CORP.,BEYOGLU,1431,3RD AVE,NEW YORK,NY,10028
40.78546557,-73.9768963,107,2077329-DCA,DANICA LLC,,464,AMSTERDAM AVE,NEW YORK,NY,10024
40.68879172,-73.95515409,303,2025571-DCA,STONEFRUIT INC.,STONEFRUIT ESPRESSO & KITCHEN,1058,BEDFORD AVE,BROOKLYN,NY,11205
40.72429287,-73.99452341,102,1376493-DCA,MOTTSU CUISINE INC.,MOTTSU,285,MOTT ST,NEW YORK,NY,10012
40.72408037,-73.98279101,103,1308999-DCA,DESMO 916 CORP.,LAVAGNA,545,E 5TH ST,NEW YORK,NY,10009
40.78381064,-73.97759741,107,2087603-DCA,421 AMSTERDAM PIZZA CORP,MADE IN NEW YORK PIZZA,421,AMSTERDAM AVE,NEW YORK,NY,10024
40.77708079,-73.97888867,107,2064661-DCA,CMR REST CORP,ELLA NYC,249,COLUMBUS AVE,NEW YORK,NY,10023
40.8067962,-73.95393312,110,1459346-DCA,"NARICHE, LLC",VINATERIA,2211,FREDERICK DOUGLASS BLVD,NEW YORK,NY,10026
40.71287235,-73.94440302,301,1395264-DCA,GRAHAM RESTAURANT LLC,SAGE,299,GRAHAM AVE,BROOKLYN,NY,11211
40.73817203,-73.98341164,106,2079376-DCA,THIRD AVE FOOD CORP,TIVOLI CAFE,283,3RD AVE,NEW YORK,NY,10010
40.70965755,-74.00937453,101,2059548-DCA,MAIDENEIRE LLC,The Malt House,11,MAIDEN LN,NEW YORK,NY,10038
40.76578147,-73.96999717,108,1334619-DCA,MADISON GLOBAL LLC,,696,MADISON AVE,NEW YORK,NY,10065
40.74521242,-73.98413528,105,1249286-DCA,27-39 EAST 30 REST CORP,THE CROOKED KNIFE,27,E 30TH ST,NEW YORK,NY,10016
40.7328426,-74.00849738,102,1076713-DCA,I MALATESTA TRATTORIA INC.,MALATESTA TRATTORIA,649,WASHINGTON ST,NEW YORK,NY,10014
40.71227426,-73.96631675,301,1331625-DCA,JEMANYA CORP.,,57,S 5TH ST,BROOKLYN,NY,11211
40.67607002,-73.94932229,308,2023397-DCA,BAR BERTRAND LLC,KING THAI,1095,BERGEN ST,BROOKLYN,NY,11216
40.77780529,-73.97832156,107,2053459-DCA,ZUCKER'S COLUMBUS LLC,ZUCKER'S BAGELS,273,COLUMBUS AVE,NEW YORK,NY,10023
40.72081306,-73.95756766,301,2085253-DCA,AELE LLC,BATHHOUSE,103,N 10TH ST,BROOKLYN,NY,11249
40.67372861,-73.99172285,306,1347119-DCA,"CLAY FARM, LLC",THE BELL HOUSE,149,7TH ST,BROOKLYN,NY,11215
40.7796149,-73.98324244,107,1379700-DCA,MY MOST FAVORITE 72ND ST. CORP.,MY MOST FAVORITE FOOD,247,W 72ND ST,NEW YORK,NY,10023
40.83841273,-73.94204661,112,2027050-DCA,"WA-HI DINER, LLC",WA-HI DINER,3915,BROADWAY,NEW YORK,NY,10032
40.77829513,-73.90169166,401,2038463-DCA,SINGLECUT BEERSMITHS LLC,SINGLECUT BEERSMITHS,1933,37TH ST,ASTORIA,NY,11105
40.74835053,-73.99283239,105,1320701-DCA,352 RESTAURANT CORP.,MUSTANG HARRY'S,352,7TH AVE,NEW YORK,NY,10001
40.72970515,-73.98924077,103,1323624-DCA,"SHARAKU, INC.",,14,STUYVESANT ST,NEW YORK,NY,10003
40.80441804,-73.96621594,109,2020258-DCA,2850 BROADWAY REST ASSOCIATES LLC,MEL'S BURGER BAR,2850,BROADWAY,NEW YORK,NY,10025
40.68920643,-73.99241325,302,1458968-DCA,SYMBIONTS LIVING LLC,BAREBURGER,145,COURT ST,BROOKLYN,NY,11201
40.76581876,-73.95764729,108,2082892-DCA,1279 1ST AVENUE LLC,PATSY'S PIZZERIA,1279,1ST AVE,NEW YORK,NY,10065
40.7485979,-73.91304274,402,1199111-DCA,DONATO'S PIZZERIA RESTAURANT CORP.,,5022,39TH AVE,WOODSIDE,NY,11377
40.76738396,-73.95958492,108,2049843-DCA,"ROSSINI, LLC",,1325,2ND AVE,NEW YORK,NY,10021
40.77755276,-73.97822055,107,2059443-DCA,53 WEST 72ND STREET CAFE LLC,THE DAKOTA BAR,53,W 72ND ST,NEW YORK,NY,10023
40.78373065,-73.95690648,108,2086430-DCA,NOGLU NEW YORK LLC,,1266,MADISON AVE,NEW YORK,NY,10128
40.77914714,-73.95056537,108,2074071-DCA,"VIETNAAM II, INC",VIETNAAM,1700,2ND AVE,NEW YORK,NY,10128
40.75991404,-73.99130785,104,1277876-DCA,"LA SCALA RESTAURANT, LLC",FIVE NAPKIN BURGER,630,9TH AVE,NEW YORK,NY,10036
40.72318482,-73.94524944,301,2054418-DCA,DAR 168 INC.,DAR 525,168,DRIGGS AVE,BROOKLYN,NY,11222
40.71498997,-74.01548959,101,1470950-DCA,"HAVATEQUILA RESTAURANT PARTNERS, LLC",EL VEZ,259,VESEY ST,NEW YORK,NY,10282
40.79359964,-73.97106448,107,1282774-DCA,201 REST. 95TH ST. CORP.,,201,W 95TH ST,NEW YORK,NY,10025
40.72095303,-73.84532468,406,1312716-DCA,KANG YUE USA CORPORATION,MOCA ASIAN BISTRO,10718,70TH RD,FOREST HILLS,NY,11375
40.72852541,-73.99936138,102,2004736-DCA,CLAUDISAL REST. CORP.,THE MALT HOUSE,206,THOMPSON ST,NEW YORK,NY,10012
40.75532907,-73.96842455,106,2051496-DCA,SILO EAST INC.,,953,2ND AVE,NEW YORK,NY,10022
40.68909821,-73.96904007,302,2038094-DCA,BROOKLYN BROWNSTONE KITCHEN LLC,MAISON MAY VANDERBILT,270,VANDERBILT AVE,BROOKLYN,NY,11205
40.77426361,-73.91252542,401,2019226-DCA,MAGIC FOOD CORPORATION,VIA VAI,3109,23RD AVE,ASTORIA,NY,11105
40.71962961,-73.99701298,102,0949447-DCA,164 MULBERRY ST. CORP.,DA NICO RESTAURANT,164,MULBERRY ST,NEW YORK,NY,10013
40.77258386,-73.9558053,108,2044685-DCA,CALEXICO 122 LLC,,1491,2ND AVE,NEW YORK,NY,10075
40.82328861,-73.95240057,109,2071749-DCA,FRIJOLITO'S RESTAURANT CORP,FRIJOLITOS,3446,BROADWAY,NEW YORK,NY,10031
40.58405593,-73.94813925,315,1194613-DCA,AMGP RESTAURANT CORP.,,2003,EMMONS AVE,BROOKLYN,NY,11235
40.73341339,-73.9900845,102,2039971-DCA,UNION SQ 4TH F & B MANAGEMENT LLC,,132,4TH AVE,NEW YORK,NY,10003
40.82202514,-73.95026254,109,2025209-DCA,"OSO HAMILTON HEIGHTS, LLC",,1616,AMSTERDAM AVE,NEW YORK,NY,10031
40.72059576,-73.99652231,102,2059065-DCA,"SAL'S FAMILY PIZZA, INC",SAL'S PIZZA,384,BROOME ST,NEW YORK,NY,10013
40.7303148,-74.00669662,102,2007739-DCA,"NAUGHTY GULL, LLC",THE CLAM,420,HUDSON ST,NEW YORK,NY,10014
40.73462409,-74.00629292,102,1346838-DCA,SLICE WEST VILLAGE LTD.,"SLICE, THE PERFECT FOOD",535,HUDSON ST,NEW YORK,NY,10014
40.71958296,-73.99725829,102,1443292-DCA,161 MULBERRY RESTAURANT LLC,ITALIAN FOOD CENTER,161,MULBERRY ST,NEW YORK,NY,10013
40.77574434,-73.98020694,107,1271565-DCA,"MAGNOLIA COLUMBUS AVENUE, LLC",,200,COLUMBUS AVE,NEW YORK,NY,10023
40.70298526,-73.9939445,302,2010338-DCA,A & B FULTON CORP.,,7,OLD FULTON ST,BROOKLYN,NY,11201
40.76490725,-73.91685163,401,1402273-DCA,J.J.M.A.P. CORP,VIA TRENTA,3619,30TH AVE,ASTORIA,NY,11103
40.71828511,-73.95749712,301,1385278-DCA,170 BEDFORD RESTAURANT LLC,THE MEATBALL SHOP,170,BEDFORD AVE,BROOKLYN,NY,11211
40.73260681,-74.00350719,102,2077166-DCA,WEST VILLAGE FINEST DELI CORP.,WEST VILLAGE FINEST DELI,84,7TH AVE S,NEW YORK,NY,10014
40.75945848,-73.99212731,104,1190049-DCA,HORSESHOES NY INC.,,611,9TH AVE,NEW YORK,NY,10036
40.74569936,-73.95652688,402,2050849-DCA,NYS LEE INCORPORATED,SKINNY'S CANTINA,4705,CENTER BLVD,LONG ISLAND CITY,NY,11109
40.78087974,-73.98025236,107,2021276-DCA,CACTUS PEAR LLC,PLAYA BETTY'S,320,AMSTERDAM AVE,NEW YORK,NY,10023
40.74548511,-74.00550359,104,1224204-DCA,156 TENTH AVENUE RESTAURANT LLC,10TH AVENUE COOKSHOP,156,10TH AVE,NEW YORK,NY,10011
40.77087857,-73.95376662,108,2092902-DCA,"C & V 77 ENTERPRISES, LLC",GREEN KITCHEN,1475,1ST AVE,NEW YORK,NY,10075
40.74543581,-74.00229527,104,1347356-DCA,O'FLYNN ENTERPRISES LLC,LE GRAINNE CAFE,183,9TH AVE,NEW YORK,NY,10011
40.77151495,-73.98177869,107,1137714-DCA,"FIORELLO'S ROMAN CAFE, INC.",,1,LINCOLN PLZ,NEW YORK,NY,10023
40.71944297,-73.99697691,102,2057010-DCA,"TOMINO, LLC",TOMI-O TABERNA GALLEGA,192,GRAND ST,NEW YORK,NY,10013
40.73670752,-74.00133512,102,2011155-DCA,GREENWICH BBQ LLC,,75,GREENWICH AVE,NEW YORK,NY,10014
40.80289408,-73.96413257,107,2050848-DCA,MADREL LLC,MARLOW  BISTRO,1018,AMSTERDAM AVE,NEW YORK,NY,10025
40.85108121,-73.939921,112,2042126-DCA,THE ELEMENT RESTAURANT GROUP INC,181 CABRINI,854,W 181ST ST,NEW YORK,NY,10033
40.77755281,-73.97847329,107,2070818-DCA,TAP NYC LLC,,267,COLUMBUS AVE,NEW YORK,NY,10023
40.6821992,-73.99580321,306,1422815-DCA,345 COURT ST. CORP.,MARCO POLO RISTORANTE,345,COURT ST,BROOKLYN,NY,11231
40.74529379,-73.97821666,106,2002652-DCA,MUNSTER CAFE LLC,THE FLYING COCK,497,3RD AVE,NEW YORK,NY,10016
40.73861775,-74.00538755,102,1092103-DCA,"RAJMAR HOLDINGS, INC.",HUDSON BAR AND BOOKS,636,HUDSON ST,NEW YORK,NY,10014
